{"type":"FeatureCollection","name":"Kelurahan Semarang Utara dan Genuk","features":[{"type":"Feature","properties":{"id":"KEL-TANJUNG-MAS","name":"Tanjung Mas","source_name":"Tanjungmas","type":"Kelurahan","category":"Batas kelurahan","kecamatan":"Semarang Utara","kabupaten":"Kota Semarang","rob":"Sangat tinggi","subsidence":"Sangat tinggi","alih":"Pelabuhan","guna":"Pelabuhan dan kampung nelayan","catatan":"Di sini berdiri Pelabuhan Tanjung Emas dan Tambaklorok. Rob masuk hampir setiap pasang tinggi. Sebagian lahan adalah reklamasi dan bekas tambak.","status":"Batas dari berkas vektor; kelas tematik adalah interpretasi","location":"Semarang Utara, Kota Semarang","observation":"Sangat tinggi","description":"Di sini berdiri Pelabuhan Tanjung Emas dan Tambaklorok. Rob masuk hampir setiap pasang tinggi. Sebagian lahan adalah reklamasi dan bekas tambak.","last_update":"2026"},"geometry":{"type":"Polygon","coordinates":[[[110.44399,-6.93932],[110.44393,-6.93933],[110.44384,-6.93928],[110.44387,-6.93898],[110.44389,-6.93879],[110.44386,-6.93872],[110.44373,-6.93871],[110.44348,-6.93874],[110.44336,-6.93873],[110.44333,-6.93877],[110.44332,-6.93902],[110.44343,-6.9392],[110.44352,-6.93935],[110.44342,-6.93968],[110.44332,-6.93983],[110.44325,-6.94003],[110.44317,-6.94021],[110.44303,-6.94034],[110.44294,-6.94054],[110.44294,-6.94067],[110.44287,-6.94085],[110.44222,-6.94308],[110.44212,-6.94327],[110.44206,-6.94348],[110.44195,-6.94369],[110.44172,-6.94392],[110.44165,-6.94461],[110.44157,-6.94509],[110.4415,-6.94539],[110.44141,-6.94565],[110.44125,-6.94579],[110.4411,-6.94574],[110.44094,-6.94561],[110.44084,-6.94548],[110.44067,-6.94533],[110.44043,-6.9452],[110.44002,-6.94518],[110.4398,-6.94528],[110.43956,-6.94531],[110.43945,-6.9452],[110.43932,-6.94497],[110.43912,-6.94408],[110.4391,-6.94386],[110.43901,-6.94351],[110.43897,-6.94335],[110.43888,-6.94308],[110.43879,-6.94283],[110.43871,-6.94263],[110.43881,-6.94231],[110.43898,-6.94222],[110.43908,-6.94201],[110.43912,-6.9418],[110.43908,-6.94167],[110.43895,-6.94161],[110.43884,-6.94161],[110.43868,-6.94163],[110.43854,-6.94169],[110.43841,-6.94175],[110.43826,-6.9418],[110.43811,-6.9418],[110.438,-6.94187],[110.43788,-6.94199],[110.43781,-6.94222],[110.43782,-6.9425],[110.43784,-6.94284],[110.43789,-6.94329],[110.43807,-6.94361],[110.43807,-6.94388],[110.43803,-6.94391],[110.43808,-6.94407],[110.43811,-6.94424],[110.43829,-6.94493],[110.43848,-6.94571],[110.43868,-6.94645],[110.4388,-6.94693],[110.43889,-6.94725],[110.4391,-6.94796],[110.4392,-6.94837],[110.43909,-6.94844],[110.43853,-6.94854],[110.43842,-6.94852],[110.43826,-6.94805],[110.43818,-6.94781],[110.438,-6.94743],[110.43792,-6.94717],[110.43784,-6.94691],[110.43775,-6.94656],[110.43763,-6.94603],[110.43755,-6.94566],[110.43746,-6.94541],[110.43739,-6.94524],[110.43738,-6.94511],[110.43738,-6.94504],[110.43735,-6.94495],[110.43737,-6.94482],[110.43744,-6.9447],[110.43749,-6.94463],[110.43749,-6.94455],[110.4372,-6.94451],[110.43715,-6.94448],[110.43706,-6.94414],[110.43692,-6.94382],[110.43677,-6.94369],[110.43671,-6.94358],[110.43662,-6.94326],[110.43657,-6.94307],[110.43655,-6.943],[110.4364,-6.94308],[110.43595,-6.9434],[110.43588,-6.94357],[110.43586,-6.94376],[110.43592,-6.944],[110.43603,-6.94429],[110.43602,-6.9446],[110.43596,-6.94489],[110.43586,-6.94527],[110.43556,-6.94562],[110.43545,-6.94579],[110.43539,-6.94601],[110.4354,-6.94628],[110.4354,-6.94656],[110.43528,-6.9467],[110.43506,-6.94659],[110.43478,-6.94641],[110.43449,-6.94636],[110.43438,-6.94643],[110.43429,-6.9466],[110.43435,-6.94686],[110.43482,-6.94732],[110.43508,-6.94741],[110.43533,-6.9475],[110.4357,-6.94755],[110.43586,-6.94768],[110.436,-6.94807],[110.43613,-6.94836],[110.43636,-6.94849],[110.43669,-6.94863],[110.43689,-6.94883],[110.43707,-6.94907],[110.43719,-6.94944],[110.43717,-6.94974],[110.43709,-6.95004],[110.43698,-6.95032],[110.43679,-6.95053],[110.4366,-6.95061],[110.43639,-6.95052],[110.43626,-6.95038],[110.43613,-6.95023],[110.43592,-6.95],[110.43471,-6.94843],[110.43449,-6.94809],[110.43435,-6.94785],[110.43419,-6.94781],[110.43409,-6.94787],[110.43404,-6.94809],[110.43399,-6.94833],[110.4339,-6.94849],[110.43373,-6.94851],[110.43372,-6.94828],[110.43373,-6.94806],[110.4338,-6.94778],[110.43385,-6.94749],[110.43386,-6.94726],[110.43379,-6.94705],[110.43367,-6.9468],[110.43356,-6.94657],[110.43348,-6.9456],[110.43325,-6.94533],[110.43313,-6.94504],[110.43307,-6.94473],[110.43303,-6.94444],[110.43296,-6.94417],[110.43281,-6.94388],[110.43265,-6.94383],[110.43242,-6.94385],[110.43188,-6.94402],[110.43178,-6.94407],[110.43163,-6.94411],[110.43149,-6.94405],[110.43149,-6.94405],[110.43153,-6.94422],[110.43111,-6.94434],[110.43099,-6.94435],[110.43084,-6.94432],[110.43065,-6.94445],[110.43046,-6.94459],[110.43005,-6.94484],[110.42966,-6.94502],[110.42947,-6.94509],[110.42928,-6.94513],[110.42859,-6.94534],[110.42844,-6.94539],[110.42841,-6.94546],[110.42796,-6.94558],[110.42758,-6.94563],[110.42749,-6.94559],[110.42734,-6.94556],[110.4272,-6.94525],[110.42702,-6.94476],[110.42681,-6.94421],[110.42644,-6.94314],[110.42631,-6.94273],[110.42626,-6.94258],[110.42615,-6.94231],[110.42596,-6.94233],[110.42581,-6.94194],[110.42573,-6.94169],[110.42565,-6.94157],[110.42555,-6.94151],[110.42539,-6.9414],[110.42525,-6.9413],[110.42491,-6.94132],[110.42459,-6.94139],[110.42431,-6.9415],[110.42407,-6.94161],[110.4237,-6.9416],[110.4237,-6.94146],[110.42366,-6.94135],[110.42364,-6.9425],[110.42361,-6.94271],[110.42357,-6.94292],[110.42355,-6.94318],[110.42356,-6.94344],[110.42357,-6.94387],[110.42353,-6.94411],[110.4236,-6.9457],[110.42369,-6.94616],[110.42369,-6.94638],[110.42373,-6.94659],[110.42385,-6.94682],[110.42412,-6.94709],[110.42433,-6.94728],[110.42444,-6.94745],[110.42456,-6.9477],[110.42468,-6.94789],[110.42554,-6.94851],[110.42561,-6.94864],[110.42569,-6.94877],[110.42578,-6.94889],[110.42589,-6.94898],[110.42601,-6.94919],[110.426,-6.94948],[110.42608,-6.94965],[110.42626,-6.94974],[110.42665,-6.94983],[110.42676,-6.95001],[110.42682,-6.95027],[110.42684,-6.95053],[110.42681,-6.95061],[110.42683,-6.95063],[110.42688,-6.95071],[110.4268,-6.95088],[110.42671,-6.95104],[110.42671,-6.95104],[110.42667,-6.95131],[110.42666,-6.95134],[110.4267,-6.95136],[110.42666,-6.95135],[110.42663,-6.95145],[110.42651,-6.95153],[110.42649,-6.95152],[110.42624,-6.95194],[110.42618,-6.95198],[110.42582,-6.95259],[110.4257,-6.95252],[110.42522,-6.95223],[110.42478,-6.95193],[110.42443,-6.95175],[110.42424,-6.95164],[110.4242,-6.95159],[110.4242,-6.95148],[110.4243,-6.95128],[110.42435,-6.95118],[110.42435,-6.95113],[110.42407,-6.9514],[110.42402,-6.95143],[110.42385,-6.95137],[110.42368,-6.95127],[110.42346,-6.95105],[110.42343,-6.95095],[110.4234,-6.95084],[110.4233,-6.95074],[110.42321,-6.95067],[110.4232,-6.95063],[110.42333,-6.95065],[110.42353,-6.95078],[110.4236,-6.95082],[110.42368,-6.95082],[110.42373,-6.95073],[110.42368,-6.95068],[110.4234,-6.95064],[110.42328,-6.95054],[110.42322,-6.95036],[110.42316,-6.95027],[110.42291,-6.95011],[110.42273,-6.94999],[110.42249,-6.94982],[110.42237,-6.94976],[110.42228,-6.94971],[110.42206,-6.94955],[110.42203,-6.94953],[110.42199,-6.9495],[110.42183,-6.94935],[110.42174,-6.9493],[110.42168,-6.94927],[110.42157,-6.94913],[110.42092,-6.94864],[110.4209,-6.94844],[110.42081,-6.94832],[110.42065,-6.94818],[110.42035,-6.94792],[110.42017,-6.94778],[110.42005,-6.94773],[110.41989,-6.94772],[110.41992,-6.94795],[110.42,-6.94834],[110.42009,-6.94869],[110.42022,-6.94903],[110.42057,-6.94913],[110.42078,-6.94928],[110.42084,-6.94948],[110.42081,-6.94969],[110.42092,-6.94977],[110.42098,-6.94984],[110.421,-6.94994],[110.42085,-6.95016],[110.42081,-6.95022],[110.42081,-6.95029],[110.42083,-6.95038],[110.42075,-6.95048],[110.42068,-6.95055],[110.42079,-6.95062],[110.42099,-6.95076],[110.42118,-6.95093],[110.42137,-6.95114],[110.42158,-6.95137],[110.42184,-6.95155],[110.42206,-6.95173],[110.42238,-6.95188],[110.4226,-6.95203],[110.42292,-6.95224],[110.42311,-6.95237],[110.42353,-6.95249],[110.42384,-6.9526],[110.42415,-6.95269],[110.42432,-6.95284],[110.4243,-6.95298],[110.42418,-6.9531],[110.42406,-6.95315],[110.42429,-6.95328],[110.42482,-6.95359],[110.42506,-6.95374],[110.42531,-6.95388],[110.42552,-6.95401],[110.42621,-6.95439],[110.42635,-6.95446],[110.42614,-6.95489],[110.4261,-6.95496],[110.42531,-6.9545],[110.42418,-6.95381],[110.42375,-6.95357],[110.42365,-6.95353],[110.42348,-6.95377],[110.42345,-6.95383],[110.42341,-6.95396],[110.42346,-6.95416],[110.42359,-6.95433],[110.42375,-6.95447],[110.42381,-6.95464],[110.42374,-6.95479],[110.42367,-6.9548],[110.42351,-6.9547],[110.42338,-6.95457],[110.42313,-6.9544],[110.42311,-6.95439],[110.42308,-6.95444],[110.42305,-6.95451],[110.42382,-6.955],[110.42424,-6.95521],[110.42437,-6.95528],[110.42428,-6.95554],[110.42418,-6.9557],[110.42279,-6.95489],[110.42219,-6.95454],[110.42196,-6.95443],[110.42191,-6.95442],[110.42171,-6.95475],[110.42162,-6.95492],[110.42157,-6.95507],[110.4215,-6.95517],[110.42122,-6.95508],[110.42116,-6.95504],[110.42156,-6.9543],[110.42159,-6.9542],[110.42159,-6.95409],[110.4216,-6.95402],[110.42153,-6.95394],[110.42148,-6.9539],[110.42145,-6.95382],[110.42135,-6.9536],[110.42128,-6.95329],[110.4212,-6.95299],[110.42116,-6.95279],[110.42115,-6.95278],[110.42113,-6.9526],[110.42107,-6.95251],[110.42078,-6.95233],[110.42055,-6.95226],[110.42044,-6.95225],[110.42029,-6.95239],[110.42024,-6.95248],[110.42028,-6.95284],[110.42029,-6.95296],[110.42027,-6.95314],[110.42026,-6.95322],[110.42003,-6.95326],[110.41991,-6.95328],[110.41965,-6.95333],[110.41958,-6.95334],[110.41951,-6.95328],[110.41932,-6.95262],[110.41923,-6.95217],[110.4192,-6.95212],[110.41912,-6.95213],[110.41897,-6.95214],[110.4189,-6.95215],[110.41876,-6.95215],[110.41871,-6.95211],[110.41889,-6.95271],[110.41908,-6.95333],[110.41911,-6.95338],[110.41924,-6.95362],[110.4194,-6.95413],[110.41945,-6.95432],[110.41956,-6.95461],[110.41975,-6.95526],[110.42011,-6.95645],[110.42023,-6.95692],[110.42025,-6.95696],[110.42055,-6.95704],[110.42065,-6.95706],[110.42068,-6.95707],[110.42153,-6.95721],[110.42184,-6.95719],[110.42233,-6.9571],[110.42295,-6.95698],[110.42365,-6.95683],[110.42419,-6.95663],[110.42423,-6.95661],[110.42424,-6.95661],[110.42429,-6.95723],[110.42434,-6.95766],[110.42435,-6.95775],[110.42445,-6.95869],[110.42456,-6.95967],[110.42458,-6.95984],[110.4246,-6.96005],[110.42468,-6.9608],[110.42479,-6.96167],[110.4249,-6.9626],[110.42498,-6.96332],[110.42518,-6.9651],[110.42521,-6.96569],[110.42521,-6.96572],[110.4252,-6.96581],[110.42519,-6.96588],[110.42519,-6.9659],[110.42517,-6.96608],[110.42517,-6.96611],[110.42516,-6.96613],[110.42514,-6.96642],[110.42513,-6.96668],[110.42513,-6.96694],[110.42512,-6.96804],[110.42512,-6.96817],[110.42511,-6.96849],[110.42512,-6.96854],[110.42525,-6.96875],[110.42526,-6.96878],[110.42616,-6.96861],[110.42639,-6.96856],[110.42658,-6.96853],[110.42683,-6.96848],[110.42754,-6.96841],[110.42804,-6.96836],[110.42862,-6.9683],[110.42872,-6.96826],[110.4292,-6.96807],[110.42976,-6.96784],[110.43008,-6.96768],[110.43025,-6.96758],[110.43044,-6.96746],[110.43094,-6.96717],[110.43095,-6.96717],[110.43095,-6.96716],[110.43092,-6.96652],[110.43089,-6.96579],[110.43087,-6.96427],[110.43086,-6.96424],[110.43086,-6.96412],[110.43086,-6.96402],[110.43086,-6.96348],[110.43083,-6.96269],[110.43082,-6.96215],[110.43081,-6.96155],[110.43081,-6.96139],[110.43079,-6.96094],[110.43078,-6.96089],[110.43077,-6.96025],[110.43074,-6.9592],[110.43073,-6.95905],[110.43072,-6.95861],[110.43069,-6.95765],[110.43069,-6.95753],[110.43068,-6.95725],[110.43065,-6.95645],[110.43065,-6.95639],[110.43064,-6.95632],[110.43064,-6.95626],[110.43063,-6.95617],[110.43061,-6.95485],[110.43061,-6.95436],[110.4306,-6.95434],[110.43064,-6.95435],[110.4311,-6.95412],[110.4316,-6.95394],[110.43195,-6.95379],[110.43313,-6.95334],[110.43364,-6.95314],[110.43463,-6.95271],[110.43508,-6.95249],[110.43654,-6.95206],[110.43657,-6.95204],[110.43675,-6.95199],[110.43712,-6.95188],[110.43718,-6.95185],[110.43767,-6.95174],[110.43781,-6.95165],[110.43827,-6.95145],[110.43878,-6.95127],[110.43896,-6.95122],[110.43906,-6.95116],[110.43913,-6.95111],[110.43915,-6.9511],[110.43971,-6.95081],[110.43981,-6.95069],[110.43991,-6.95047],[110.43992,-6.95046],[110.44008,-6.95005],[110.44032,-6.94999],[110.44062,-6.94909],[110.44091,-6.94815],[110.44144,-6.94663],[110.44195,-6.94522],[110.44273,-6.94291],[110.4435,-6.94062],[110.44399,-6.93932]]]}},{"type":"Feature","properties":{"id":"KEL-BANDARHARJO","name":"Bandarharjo","source_name":"Bandarharjo","type":"Kelurahan","category":"Batas kelurahan","kecamatan":"Semarang Utara","kabupaten":"Kota Semarang","rob":"Tinggi","subsidence":"Tinggi","alih":"Permukiman","guna":"Kampung di atas dataran lumpur","catatan":"Kampung padat di tepi Kali Semarang. Genangan datang dari kanal yang tertahan pasang, bukan hanya dari laut terbuka.","status":"Batas dari berkas vektor; kelas tematik adalah interpretasi","location":"Semarang Utara, Kota Semarang","observation":"Tinggi","description":"Kampung padat di tepi Kali Semarang. Genangan datang dari kanal yang tertahan pasang, bukan hanya dari laut terbuka.","last_update":"2026"},"geometry":{"type":"MultiPolygon","coordinates":[[[[110.40795,-6.94942],[110.40796,-6.94928],[110.40794,-6.94927],[110.40794,-6.94937],[110.40795,-6.94944],[110.40795,-6.94942]]],[[[110.40747,-6.94964],[110.40746,-6.94932],[110.40742,-6.94914],[110.40743,-6.94938],[110.40746,-6.94961],[110.40749,-6.94971],[110.40747,-6.94964]]],[[[110.40784,-6.9487],[110.40784,-6.94851],[110.40788,-6.94843],[110.40792,-6.94832],[110.40784,-6.94819],[110.40776,-6.94813],[110.40778,-6.94834],[110.40782,-6.94871],[110.40784,-6.9487]]],[[[110.41862,-6.94882],[110.41863,-6.94839],[110.41863,-6.94821],[110.41864,-6.94704],[110.41865,-6.94679],[110.41866,-6.94622],[110.41868,-6.94583],[110.41868,-6.94577],[110.41834,-6.94575],[110.41826,-6.94573],[110.41815,-6.94566],[110.4178,-6.94568],[110.41687,-6.94571],[110.41677,-6.94572],[110.41669,-6.94681],[110.41668,-6.94699],[110.41716,-6.94702],[110.4173,-6.94703],[110.4174,-6.94748],[110.41747,-6.94794],[110.41749,-6.94833],[110.4175,-6.94861],[110.41645,-6.94879],[110.41645,-6.94905],[110.41643,-6.9491],[110.41629,-6.94894],[110.41624,-6.9489],[110.41617,-6.94892],[110.41612,-6.9492],[110.4161,-6.94924],[110.41589,-6.94879],[110.41581,-6.94863],[110.41573,-6.94861],[110.41568,-6.94859],[110.41561,-6.94845],[110.41572,-6.94832],[110.41576,-6.94825],[110.41571,-6.94812],[110.41566,-6.94801],[110.41571,-6.94789],[110.41574,-6.94776],[110.41573,-6.9477],[110.41547,-6.94765],[110.41532,-6.94769],[110.41521,-6.94778],[110.4151,-6.94802],[110.41503,-6.94812],[110.4146,-6.94845],[110.41432,-6.94862],[110.41407,-6.94877],[110.41398,-6.94886],[110.41395,-6.94896],[110.41401,-6.9491],[110.41408,-6.94934],[110.41407,-6.94943],[110.41386,-6.94949],[110.41371,-6.94954],[110.41355,-6.94962],[110.41336,-6.94975],[110.41313,-6.94988],[110.41303,-6.94995],[110.413,-6.95002],[110.41302,-6.95015],[110.41307,-6.95026],[110.41306,-6.95031],[110.41294,-6.9504],[110.41231,-6.95064],[110.41213,-6.95068],[110.41204,-6.95068],[110.41185,-6.95073],[110.41173,-6.95076],[110.41139,-6.95037],[110.41133,-6.95024],[110.4113,-6.95017],[110.41127,-6.95015],[110.41126,-6.95015],[110.4112,-6.95012],[110.41111,-6.95007],[110.411,-6.94992],[110.41089,-6.94979],[110.41077,-6.94974],[110.41045,-6.94983],[110.41043,-6.94983],[110.41042,-6.94983],[110.41032,-6.94989],[110.41026,-6.95],[110.41025,-6.95007],[110.41029,-6.95019],[110.41027,-6.95024],[110.41018,-6.95026],[110.41012,-6.95023],[110.41011,-6.95016],[110.41011,-6.95007],[110.40972,-6.95002],[110.40955,-6.95003],[110.40924,-6.95014],[110.40902,-6.95018],[110.40848,-6.95025],[110.40826,-6.95031],[110.40814,-6.95035],[110.40812,-6.95034],[110.40821,-6.95048],[110.40827,-6.95068],[110.40817,-6.95089],[110.40803,-6.95099],[110.40784,-6.95094],[110.40776,-6.95038],[110.40769,-6.95017],[110.40763,-6.95003],[110.40753,-6.94984],[110.40757,-6.94999],[110.40768,-6.95031],[110.40774,-6.95047],[110.4077,-6.95053],[110.40755,-6.95056],[110.40759,-6.95072],[110.40808,-6.95255],[110.40841,-6.9532],[110.40875,-6.9538],[110.40962,-6.95481],[110.4099,-6.95517],[110.41052,-6.95593],[110.4111,-6.95628],[110.41255,-6.95661],[110.41284,-6.95684],[110.41367,-6.95813],[110.41429,-6.95892],[110.41487,-6.95929],[110.41536,-6.95949],[110.41608,-6.95938],[110.41643,-6.95945],[110.41704,-6.95987],[110.41715,-6.96016],[110.41731,-6.96063],[110.4178,-6.96123],[110.41873,-6.96204],[110.4193,-6.9623],[110.42007,-6.9627],[110.42063,-6.96308],[110.42173,-6.96409],[110.42209,-6.96416],[110.42235,-6.9642],[110.42253,-6.96424],[110.42271,-6.96442],[110.42284,-6.96493],[110.4228,-6.9656],[110.4222,-6.96713],[110.42223,-6.96755],[110.42249,-6.96773],[110.4227,-6.96779],[110.42289,-6.96786],[110.42343,-6.96793],[110.42473,-6.96841],[110.42494,-6.96866],[110.42498,-6.96864],[110.42512,-6.96854],[110.42511,-6.96849],[110.42512,-6.96817],[110.42512,-6.96804],[110.42513,-6.96694],[110.42513,-6.96668],[110.42514,-6.96642],[110.42516,-6.96613],[110.42517,-6.96611],[110.42517,-6.96608],[110.42519,-6.9659],[110.42519,-6.96588],[110.4252,-6.96581],[110.42521,-6.96572],[110.42521,-6.96569],[110.42518,-6.9651],[110.42498,-6.96332],[110.4249,-6.9626],[110.42479,-6.96167],[110.42468,-6.9608],[110.4246,-6.96005],[110.42458,-6.95984],[110.42456,-6.95967],[110.42445,-6.95869],[110.42435,-6.95775],[110.42434,-6.95766],[110.42429,-6.95723],[110.42424,-6.95661],[110.42423,-6.95661],[110.42419,-6.95663],[110.42365,-6.95683],[110.42295,-6.95698],[110.42233,-6.9571],[110.42184,-6.95719],[110.42153,-6.95721],[110.42068,-6.95707],[110.42065,-6.95706],[110.42055,-6.95704],[110.42025,-6.95696],[110.42023,-6.95692],[110.42011,-6.95645],[110.41975,-6.95526],[110.41956,-6.95461],[110.41945,-6.95432],[110.4194,-6.95413],[110.41924,-6.95362],[110.41911,-6.95338],[110.41908,-6.95333],[110.41889,-6.95271],[110.41871,-6.95211],[110.41859,-6.95181],[110.41856,-6.9511],[110.41861,-6.9493],[110.41862,-6.94882]]]]}},{"type":"Feature","properties":{"id":"KEL-DADAPSARI","name":"Dadapsari","source_name":"Dadapsari","type":"Kelurahan","category":"Batas kelurahan","kecamatan":"Semarang Utara","kabupaten":"Kota Semarang","rob":"Sedang","subsidence":"Tinggi","alih":"Permukiman","guna":"Tepi kota lama","catatan":"Rob di sini lebih sering lewat saluran dan kali daripada sebagai air laut yang melimpas langsung.","status":"Batas dari berkas vektor; kelas tematik adalah interpretasi","location":"Semarang Utara, Kota Semarang","observation":"Sedang","description":"Rob di sini lebih sering lewat saluran dan kali daripada sebagai air laut yang melimpas langsung.","last_update":"2026"},"geometry":{"type":"Polygon","coordinates":[[[110.42494,-6.96866],[110.42473,-6.96841],[110.42343,-6.96793],[110.42289,-6.96786],[110.4227,-6.96779],[110.42249,-6.96773],[110.42223,-6.96755],[110.4222,-6.96713],[110.4228,-6.9656],[110.42284,-6.96493],[110.42271,-6.96442],[110.42253,-6.96424],[110.42235,-6.9642],[110.42232,-6.96432],[110.42232,-6.96436],[110.42231,-6.96437],[110.4223,-6.96441],[110.42227,-6.96444],[110.4222,-6.9645],[110.4219,-6.96464],[110.42164,-6.96477],[110.42161,-6.96467],[110.42156,-6.9645],[110.42152,-6.96445],[110.42106,-6.96454],[110.42105,-6.96454],[110.42103,-6.96455],[110.42101,-6.96455],[110.42098,-6.96455],[110.42095,-6.96456],[110.42091,-6.96457],[110.42034,-6.96471],[110.4201,-6.96477],[110.41971,-6.96488],[110.41961,-6.96492],[110.41938,-6.96501],[110.41924,-6.96505],[110.41871,-6.96523],[110.41838,-6.96535],[110.41812,-6.96544],[110.418,-6.96547],[110.41798,-6.96547],[110.41754,-6.96561],[110.41747,-6.96563],[110.41717,-6.96573],[110.41696,-6.9658],[110.41622,-6.96604],[110.41596,-6.96613],[110.41586,-6.96617],[110.41576,-6.96652],[110.4156,-6.96705],[110.41551,-6.96739],[110.41542,-6.96761],[110.41531,-6.96772],[110.41548,-6.9679],[110.41549,-6.96792],[110.41554,-6.96797],[110.41557,-6.96801],[110.41562,-6.96806],[110.41573,-6.96817],[110.41591,-6.96836],[110.41598,-6.96844],[110.41604,-6.9685],[110.41645,-6.96895],[110.41654,-6.96905],[110.41666,-6.96918],[110.41687,-6.9694],[110.41715,-6.96969],[110.41717,-6.96972],[110.41722,-6.96981],[110.41725,-6.96985],[110.41823,-6.96901],[110.41853,-6.96881],[110.41897,-6.96875],[110.4192,-6.96873],[110.41976,-6.96864],[110.42011,-6.96858],[110.42022,-6.96899],[110.42026,-6.96915],[110.42034,-6.96938],[110.42045,-6.96975],[110.42074,-6.97067],[110.42086,-6.97061],[110.42125,-6.97043],[110.42232,-6.96992],[110.42237,-6.9699],[110.4225,-6.96986],[110.42295,-6.96978],[110.42341,-6.9697],[110.42386,-6.96962],[110.42404,-6.96951],[110.42424,-6.96929],[110.42441,-6.96911],[110.42463,-6.96894],[110.42476,-6.96882],[110.42476,-6.96882],[110.42483,-6.96874],[110.42488,-6.96871],[110.42494,-6.96866]]]}},{"type":"Feature","properties":{"id":"KEL-KUNINGAN","name":"Kuningan","source_name":"Kuningan","type":"Kelurahan","category":"Batas kelurahan","kecamatan":"Semarang Utara","kabupaten":"Kota Semarang","rob":"Sedang","subsidence":"Sedang","alih":"Perkotaan","guna":"Kampung dan jasa","catatan":"Kelurahan campuran di sisi barat pelabuhan. Rob ada, tetapi tidak selebar di Tambaklorok.","status":"Batas dari berkas vektor; kelas tematik adalah interpretasi","location":"Semarang Utara, Kota Semarang","observation":"Sedang","description":"Kelurahan campuran di sisi barat pelabuhan. Rob ada, tetapi tidak selebar di Tambaklorok.","last_update":"2026"},"geometry":{"type":"Polygon","coordinates":[[[110.42235,-6.9642],[110.42209,-6.96416],[110.42173,-6.96409],[110.42063,-6.96308],[110.42007,-6.9627],[110.4193,-6.9623],[110.41873,-6.96204],[110.4178,-6.96123],[110.41731,-6.96063],[110.41715,-6.96016],[110.41704,-6.95987],[110.41643,-6.95945],[110.41608,-6.95938],[110.41536,-6.95949],[110.41487,-6.95929],[110.41429,-6.95892],[110.41367,-6.95813],[110.41284,-6.95684],[110.41255,-6.95661],[110.4111,-6.95628],[110.41052,-6.95593],[110.4099,-6.95517],[110.40988,-6.95562],[110.4099,-6.95588],[110.41021,-6.95818],[110.41028,-6.9591],[110.41066,-6.96238],[110.41069,-6.96281],[110.41102,-6.96592],[110.41128,-6.96623],[110.41133,-6.9665],[110.41139,-6.96688],[110.41139,-6.96691],[110.41141,-6.96695],[110.41147,-6.96691],[110.41258,-6.96679],[110.41363,-6.96665],[110.41416,-6.96659],[110.41427,-6.9666],[110.41439,-6.96669],[110.41446,-6.96674],[110.41461,-6.96691],[110.41496,-6.96734],[110.41517,-6.96758],[110.41531,-6.96772],[110.41542,-6.96761],[110.41551,-6.96739],[110.4156,-6.96705],[110.41576,-6.96652],[110.41586,-6.96617],[110.41596,-6.96613],[110.41622,-6.96604],[110.41696,-6.9658],[110.41717,-6.96573],[110.41747,-6.96563],[110.41754,-6.96561],[110.41798,-6.96547],[110.418,-6.96547],[110.41812,-6.96544],[110.41838,-6.96535],[110.41871,-6.96523],[110.41924,-6.96505],[110.41938,-6.96501],[110.41961,-6.96492],[110.41971,-6.96488],[110.4201,-6.96477],[110.42034,-6.96471],[110.42091,-6.96457],[110.42095,-6.96456],[110.42098,-6.96455],[110.42101,-6.96455],[110.42103,-6.96455],[110.42105,-6.96454],[110.42106,-6.96454],[110.42152,-6.96445],[110.42156,-6.9645],[110.42161,-6.96467],[110.42164,-6.96477],[110.4219,-6.96464],[110.4222,-6.9645],[110.42227,-6.96444],[110.4223,-6.96441],[110.42231,-6.96437],[110.42232,-6.96436],[110.42232,-6.96432],[110.42235,-6.9642]]]}},{"type":"Feature","properties":{"id":"KEL-PANGGUNG-LOR","name":"Panggung Lor","source_name":"Punggung Lor","type":"Kelurahan","category":"Batas kelurahan","kecamatan":"Semarang Utara","kabupaten":"Kota Semarang","rob":"Sedang","subsidence":"Sedang","alih":"Permukiman","guna":"Panggung Lor","catatan":"Nama pada berkas tertulis Punggung Lor. Di peta ini dipakai sebagai Panggung Lor, kelurahan pesisir barat Semarang Utara.","status":"Batas dari berkas vektor; kelas tematik adalah interpretasi","location":"Semarang Utara, Kota Semarang","observation":"Sedang","description":"Nama pada berkas tertulis Punggung Lor. Di peta ini dipakai sebagai Panggung Lor, kelurahan pesisir barat Semarang Utara.","last_update":"2026"},"geometry":{"type":"MultiPolygon","coordinates":[[[[110.40712,-6.94967],[110.40713,-6.94958],[110.40716,-6.94947],[110.40713,-6.9494],[110.40708,-6.94937],[110.40707,-6.94955],[110.40712,-6.94969],[110.40713,-6.94971],[110.40712,-6.94967]]],[[[110.39901,-6.94701],[110.39915,-6.94693],[110.39931,-6.94688],[110.39933,-6.94681],[110.39928,-6.94674],[110.39914,-6.94645],[110.39912,-6.94642],[110.39904,-6.94646],[110.39892,-6.94655],[110.39892,-6.94655],[110.39892,-6.94667],[110.39882,-6.94679],[110.39856,-6.94694],[110.39827,-6.94713],[110.3979,-6.94742],[110.39762,-6.94767],[110.39705,-6.94814],[110.39695,-6.94823],[110.39686,-6.9483],[110.39658,-6.94833],[110.39633,-6.94831],[110.39622,-6.94827],[110.39623,-6.94834],[110.39629,-6.94863],[110.39641,-6.94888],[110.39657,-6.94918],[110.39671,-6.94954],[110.39693,-6.94996],[110.39701,-6.95034],[110.39699,-6.95059],[110.39702,-6.95095],[110.39715,-6.95137],[110.39736,-6.95174],[110.39763,-6.9521],[110.39786,-6.95245],[110.39805,-6.95281],[110.39819,-6.9531],[110.39825,-6.95335],[110.39835,-6.95363],[110.39844,-6.95379],[110.39838,-6.95415],[110.39824,-6.9544],[110.39803,-6.95445],[110.39788,-6.95427],[110.39778,-6.95401],[110.39774,-6.95382],[110.3976,-6.95353],[110.39747,-6.95331],[110.3973,-6.9531],[110.3971,-6.95284],[110.39692,-6.95262],[110.39674,-6.95216],[110.39613,-6.95087],[110.39603,-6.9509],[110.39661,-6.95228],[110.3972,-6.95404],[110.39751,-6.95456],[110.39798,-6.955],[110.39805,-6.95509],[110.39833,-6.95552],[110.3989,-6.9567],[110.39916,-6.9576],[110.39934,-6.959],[110.39952,-6.95992],[110.39973,-6.96153],[110.39978,-6.96269],[110.3998,-6.96444],[110.39989,-6.96515],[110.39997,-6.96576],[110.4016,-6.96566],[110.4017,-6.96567],[110.40181,-6.96569],[110.40182,-6.96569],[110.40216,-6.96566],[110.40224,-6.96566],[110.40371,-6.96551],[110.40381,-6.96548],[110.40517,-6.96511],[110.40556,-6.965],[110.40585,-6.96496],[110.40586,-6.96495],[110.40639,-6.96487],[110.40624,-6.96389],[110.40568,-6.96399],[110.40563,-6.9639],[110.40549,-6.9638],[110.40547,-6.96379],[110.40538,-6.96349],[110.40577,-6.96344],[110.40622,-6.96337],[110.40691,-6.96328],[110.40692,-6.96328],[110.40786,-6.96314],[110.40821,-6.96307],[110.40824,-6.96307],[110.40892,-6.96301],[110.40929,-6.96297],[110.41005,-6.96287],[110.41006,-6.96286],[110.41054,-6.96276],[110.41069,-6.96281],[110.41066,-6.96238],[110.41028,-6.9591],[110.41021,-6.95818],[110.4099,-6.95588],[110.40988,-6.95562],[110.4099,-6.95517],[110.40962,-6.95481],[110.40875,-6.9538],[110.40841,-6.9532],[110.40808,-6.95255],[110.40759,-6.95072],[110.40755,-6.95056],[110.40751,-6.95056],[110.40741,-6.95056],[110.40734,-6.95049],[110.40721,-6.95002],[110.40718,-6.95005],[110.407,-6.95013],[110.40652,-6.95023],[110.40635,-6.95025],[110.40623,-6.95009],[110.40614,-6.94985],[110.406,-6.94954],[110.4059,-6.94935],[110.4058,-6.94901],[110.40568,-6.94872],[110.40566,-6.9487],[110.40537,-6.94884],[110.40564,-6.94987],[110.40574,-6.95012],[110.4058,-6.95034],[110.40574,-6.95054],[110.4056,-6.95071],[110.40548,-6.95078],[110.40546,-6.95084],[110.40529,-6.95115],[110.40451,-6.95165],[110.40434,-6.95176],[110.40414,-6.95186],[110.40376,-6.95187],[110.40309,-6.95198],[110.40283,-6.95201],[110.40251,-6.95183],[110.40178,-6.95167],[110.4017,-6.95164],[110.40165,-6.95154],[110.40145,-6.95148],[110.40133,-6.95132],[110.40062,-6.95109],[110.40041,-6.95102],[110.40021,-6.95089],[110.40003,-6.95079],[110.3997,-6.95069],[110.39946,-6.95063],[110.39884,-6.95044],[110.39831,-6.95033],[110.39806,-6.95026],[110.39793,-6.95014],[110.39729,-6.94887],[110.39711,-6.94851],[110.39707,-6.9484],[110.3975,-6.948],[110.39779,-6.94778],[110.39793,-6.94767],[110.39795,-6.94762],[110.39813,-6.94746],[110.3982,-6.94743],[110.39846,-6.9472],[110.39864,-6.9471],[110.3988,-6.94713],[110.39901,-6.94701]]]]}},{"type":"Feature","properties":{"id":"KEL-PANGGUNG-KIDUL","name":"Panggung Kidul","source_name":"Panggung Kidul","type":"Kelurahan","category":"Batas kelurahan","kecamatan":"Semarang Utara","kabupaten":"Kota Semarang","rob":"Sedang","subsidence":"Sedang","alih":"Permukiman","guna":"Permukiman barat pelabuhan","catatan":"Masih terkena rob pada pasang tinggi, terutama di bagian yang lebih dekat ke pantai.","status":"Batas dari berkas vektor; kelas tematik adalah interpretasi","location":"Semarang Utara, Kota Semarang","observation":"Sedang","description":"Masih terkena rob pada pasang tinggi, terutama di bagian yang lebih dekat ke pantai.","last_update":"2026"},"geometry":{"type":"Polygon","coordinates":[[[110.41069,-6.96281],[110.41054,-6.96276],[110.41006,-6.96286],[110.41005,-6.96287],[110.40929,-6.96297],[110.40892,-6.96301],[110.40824,-6.96307],[110.40821,-6.96307],[110.40786,-6.96314],[110.40692,-6.96328],[110.40691,-6.96328],[110.40622,-6.96337],[110.40577,-6.96344],[110.40538,-6.96349],[110.40547,-6.96379],[110.40549,-6.9638],[110.40563,-6.9639],[110.40568,-6.96399],[110.40624,-6.96389],[110.40639,-6.96487],[110.40586,-6.96495],[110.40585,-6.96496],[110.40556,-6.965],[110.40517,-6.96511],[110.40381,-6.96548],[110.40371,-6.96551],[110.40224,-6.96566],[110.40216,-6.96566],[110.40182,-6.96569],[110.40181,-6.96569],[110.4017,-6.96567],[110.4016,-6.96566],[110.39997,-6.96576],[110.40021,-6.96702],[110.40041,-6.96868],[110.40159,-6.96866],[110.40203,-6.96864],[110.40248,-6.96862],[110.40271,-6.96861],[110.40314,-6.96856],[110.40325,-6.96854],[110.40381,-6.96841],[110.40416,-6.96831],[110.40491,-6.96798],[110.40539,-6.96778],[110.40579,-6.96763],[110.40583,-6.96761],[110.40586,-6.9676],[110.40616,-6.96749],[110.40629,-6.96744],[110.40641,-6.9674],[110.40645,-6.96759],[110.40645,-6.9676],[110.40653,-6.96786],[110.40662,-6.96804],[110.40666,-6.96832],[110.40672,-6.96845],[110.40678,-6.96857],[110.40702,-6.96856],[110.40717,-6.9685],[110.40716,-6.96826],[110.40715,-6.96791],[110.40722,-6.9679],[110.40742,-6.96786],[110.4076,-6.96778],[110.40835,-6.96752],[110.40859,-6.96744],[110.40875,-6.96739],[110.40923,-6.96725],[110.41016,-6.96704],[110.41053,-6.96696],[110.41083,-6.96703],[110.41122,-6.96702],[110.41123,-6.96702],[110.41141,-6.96695],[110.41139,-6.96691],[110.41139,-6.96688],[110.41133,-6.9665],[110.41128,-6.96623],[110.41102,-6.96592],[110.41069,-6.96281]]]}},{"type":"Feature","properties":{"id":"KEL-PLOMBOKAN","name":"Plombokan","source_name":"Plombokan","type":"Kelurahan","category":"Batas kelurahan","kecamatan":"Semarang Utara","kabupaten":"Kota Semarang","rob":"Rendah","subsidence":"Sedang","alih":"Perkotaan","guna":"Kampung kota","catatan":"Lebih ke dalam dari garis pantai. Genangan biasanya gabungan hujan dan air kali, bukan rob harian.","status":"Batas dari berkas vektor; kelas tematik adalah interpretasi","location":"Semarang Utara, Kota Semarang","observation":"Rendah","description":"Lebih ke dalam dari garis pantai. Genangan biasanya gabungan hujan dan air kali, bukan rob harian.","last_update":"2026"},"geometry":{"type":"Polygon","coordinates":[[[110.41262,-6.97424],[110.4126,-6.97422],[110.41252,-6.97402],[110.41251,-6.97399],[110.41248,-6.97387],[110.41247,-6.97382],[110.41244,-6.97355],[110.41243,-6.97341],[110.41243,-6.97315],[110.41242,-6.97305],[110.41242,-6.97297],[110.41241,-6.97256],[110.41239,-6.97167],[110.41232,-6.97117],[110.41215,-6.96989],[110.41209,-6.96936],[110.41207,-6.96927],[110.41204,-6.96907],[110.41203,-6.96901],[110.41193,-6.96854],[110.41162,-6.96757],[110.4116,-6.9675],[110.41157,-6.96742],[110.41155,-6.96734],[110.41141,-6.96695],[110.41123,-6.96702],[110.41122,-6.96702],[110.41083,-6.96703],[110.41053,-6.96696],[110.41016,-6.96704],[110.40923,-6.96725],[110.40875,-6.96739],[110.40859,-6.96744],[110.40835,-6.96752],[110.4076,-6.96778],[110.40742,-6.96786],[110.40722,-6.9679],[110.40715,-6.96791],[110.40716,-6.96826],[110.40717,-6.9685],[110.40702,-6.96856],[110.40678,-6.96857],[110.40678,-6.9687],[110.40659,-6.96901],[110.40649,-6.9692],[110.40646,-6.96943],[110.40646,-6.96947],[110.40654,-6.97022],[110.40662,-6.9705],[110.40671,-6.97093],[110.40687,-6.97115],[110.40708,-6.9714],[110.40716,-6.97148],[110.40717,-6.97151],[110.4068,-6.9717],[110.40692,-6.97197],[110.40697,-6.97215],[110.40698,-6.97216],[110.40704,-6.9724],[110.40709,-6.97253],[110.40714,-6.97275],[110.40716,-6.97287],[110.40724,-6.97329],[110.40729,-6.97358],[110.40729,-6.97363],[110.40732,-6.97403],[110.40735,-6.97435],[110.40737,-6.97473],[110.40742,-6.97492],[110.40746,-6.975],[110.40755,-6.97515],[110.40767,-6.97531],[110.4077,-6.97543],[110.40757,-6.97578],[110.40753,-6.9759],[110.40752,-6.97605],[110.40743,-6.97622],[110.40731,-6.97637],[110.40726,-6.9765],[110.40723,-6.97658],[110.4068,-6.97667],[110.4068,-6.97668],[110.40684,-6.97677],[110.40686,-6.9769],[110.40688,-6.97706],[110.40728,-6.97702],[110.4084,-6.97673],[110.40842,-6.97672],[110.40884,-6.97658],[110.40919,-6.97646],[110.40925,-6.97644],[110.40968,-6.97624],[110.40975,-6.97621],[110.41014,-6.97602],[110.4107,-6.97567],[110.41117,-6.97535],[110.41128,-6.97525],[110.41197,-6.97477],[110.41262,-6.97424]]]}},{"type":"Feature","properties":{"id":"KEL-BULU-LOR","name":"Bulu Lor","source_name":"Bulu Lor","type":"Kelurahan","category":"Batas kelurahan","kecamatan":"Semarang Utara","kabupaten":"Kota Semarang","rob":"Rendah","subsidence":"Sedang","alih":"Perkotaan","guna":"Kampung kota","catatan":"Kelurahan dalam di Semarang Utara. Bukan zona rob harian.","status":"Batas dari berkas vektor; kelas tematik adalah interpretasi","location":"Semarang Utara, Kota Semarang","observation":"Rendah","description":"Kelurahan dalam di Semarang Utara. Bukan zona rob harian.","last_update":"2026"},"geometry":{"type":"Polygon","coordinates":[[[110.40678,-6.96857],[110.40672,-6.96845],[110.40666,-6.96832],[110.40662,-6.96804],[110.40653,-6.96786],[110.40645,-6.9676],[110.40645,-6.96759],[110.40641,-6.9674],[110.40629,-6.96744],[110.40616,-6.96749],[110.40586,-6.9676],[110.40583,-6.96761],[110.40579,-6.96763],[110.40539,-6.96778],[110.40491,-6.96798],[110.40416,-6.96831],[110.40381,-6.96841],[110.40325,-6.96854],[110.40314,-6.96856],[110.40271,-6.96861],[110.40248,-6.96862],[110.40203,-6.96864],[110.40159,-6.96866],[110.40041,-6.96868],[110.40048,-6.96926],[110.40056,-6.96991],[110.4007,-6.97109],[110.40088,-6.97228],[110.40109,-6.97328],[110.4012,-6.97455],[110.40138,-6.97634],[110.4014,-6.97753],[110.40159,-6.97751],[110.40165,-6.9775],[110.402,-6.97748],[110.40201,-6.97748],[110.40203,-6.97748],[110.40245,-6.97745],[110.403,-6.9774],[110.40391,-6.97733],[110.40425,-6.9773],[110.40442,-6.97729],[110.4048,-6.97725],[110.4051,-6.97723],[110.40513,-6.97723],[110.40519,-6.97723],[110.4052,-6.97722],[110.40524,-6.97722],[110.40573,-6.97717],[110.4058,-6.97717],[110.40688,-6.97706],[110.40686,-6.9769],[110.40684,-6.97677],[110.4068,-6.97668],[110.4068,-6.97667],[110.40723,-6.97658],[110.40726,-6.9765],[110.40731,-6.97637],[110.40743,-6.97622],[110.40752,-6.97605],[110.40753,-6.9759],[110.40757,-6.97578],[110.4077,-6.97543],[110.40767,-6.97531],[110.40755,-6.97515],[110.40746,-6.975],[110.40742,-6.97492],[110.40737,-6.97473],[110.40735,-6.97435],[110.40732,-6.97403],[110.40729,-6.97363],[110.40729,-6.97358],[110.40724,-6.97329],[110.40716,-6.97287],[110.40714,-6.97275],[110.40709,-6.97253],[110.40704,-6.9724],[110.40698,-6.97216],[110.40697,-6.97215],[110.40692,-6.97197],[110.4068,-6.9717],[110.40717,-6.97151],[110.40716,-6.97148],[110.40708,-6.9714],[110.40687,-6.97115],[110.40671,-6.97093],[110.40662,-6.9705],[110.40654,-6.97022],[110.40646,-6.96947],[110.40646,-6.96943],[110.40649,-6.9692],[110.40659,-6.96901],[110.40678,-6.9687],[110.40678,-6.96857]]]}},{"type":"Feature","properties":{"id":"KEL-PURWOSARI","name":"Purwosari","source_name":"Purwosari","type":"Kelurahan","category":"Batas kelurahan","kecamatan":"Semarang Utara","kabupaten":"Kota Semarang","rob":"Rendah","subsidence":"Sedang","alih":"Perkotaan","guna":"Kampung kota","catatan":"Yang dipakai adalah Purwosari di Semarang Utara, bukan Purwosari di Gunungpati.","status":"Batas dari berkas vektor; kelas tematik adalah interpretasi","location":"Semarang Utara, Kota Semarang","observation":"Rendah","description":"Yang dipakai adalah Purwosari di Semarang Utara, bukan Purwosari di Gunungpati.","last_update":"2026"},"geometry":{"type":"Polygon","coordinates":[[[110.41531,-6.96772],[110.41517,-6.96758],[110.41496,-6.96734],[110.41461,-6.96691],[110.41446,-6.96674],[110.41439,-6.96669],[110.41427,-6.9666],[110.41416,-6.96659],[110.41363,-6.96665],[110.41258,-6.96679],[110.41147,-6.96691],[110.41141,-6.96695],[110.41155,-6.96734],[110.41157,-6.96742],[110.4116,-6.9675],[110.41162,-6.96757],[110.41193,-6.96854],[110.41203,-6.96901],[110.41204,-6.96907],[110.41207,-6.96927],[110.41209,-6.96936],[110.41215,-6.96989],[110.41232,-6.97117],[110.41239,-6.97167],[110.41241,-6.97256],[110.41242,-6.97297],[110.41242,-6.97305],[110.41243,-6.97315],[110.41243,-6.97341],[110.41244,-6.97355],[110.41247,-6.97382],[110.41248,-6.97387],[110.41251,-6.97399],[110.41252,-6.97402],[110.4126,-6.97422],[110.41262,-6.97424],[110.41271,-6.97437],[110.41291,-6.97452],[110.41295,-6.97455],[110.41332,-6.97484],[110.41355,-6.97438],[110.4137,-6.97411],[110.41371,-6.97411],[110.4138,-6.97404],[110.41417,-6.97383],[110.41498,-6.97347],[110.41569,-6.97312],[110.41644,-6.97275],[110.41646,-6.97273],[110.41695,-6.97251],[110.41713,-6.97243],[110.4178,-6.97211],[110.41811,-6.97196],[110.41844,-6.97181],[110.4186,-6.97173],[110.41921,-6.97144],[110.41944,-6.97133],[110.4195,-6.9713],[110.42074,-6.97067],[110.42045,-6.96975],[110.42034,-6.96938],[110.42026,-6.96915],[110.42022,-6.96899],[110.42011,-6.96858],[110.41976,-6.96864],[110.4192,-6.96873],[110.41897,-6.96875],[110.41853,-6.96881],[110.41823,-6.96901],[110.41725,-6.96985],[110.41722,-6.96981],[110.41717,-6.96972],[110.41715,-6.96969],[110.41687,-6.9694],[110.41666,-6.96918],[110.41654,-6.96905],[110.41645,-6.96895],[110.41604,-6.9685],[110.41598,-6.96844],[110.41591,-6.96836],[110.41573,-6.96817],[110.41562,-6.96806],[110.41557,-6.96801],[110.41554,-6.96797],[110.41549,-6.96792],[110.41548,-6.9679],[110.41531,-6.96772]]]}},{"type":"Feature","properties":{"id":"KEL-TRIMULYO","name":"Trimulyo","source_name":"Trimulyo","type":"Kelurahan","category":"Batas kelurahan","kecamatan":"Genuk","kabupaten":"Kota Semarang","rob":"Tinggi","subsidence":"Tinggi","alih":"Tambak","guna":"Tambak dan sisa mangrove","catatan":"Muka pantai di depan tambak tidak lagi tegas. Mangrove yang tersisa tipis dan terputus.","status":"Batas dari berkas vektor; kelas tematik adalah interpretasi","location":"Genuk, Kota Semarang","observation":"Tinggi","description":"Muka pantai di depan tambak tidak lagi tegas. Mangrove yang tersisa tipis dan terputus.","last_update":"2026"},"geometry":{"type":"Polygon","coordinates":[[[110.46321,-6.93152],[110.4632,-6.93152],[110.46305,-6.93154],[110.46298,-6.93153],[110.46297,-6.93142],[110.46294,-6.93139],[110.46288,-6.93139],[110.46276,-6.93139],[110.46268,-6.93142],[110.46256,-6.9315],[110.46219,-6.93159],[110.46195,-6.9317],[110.46169,-6.93184],[110.46145,-6.93194],[110.46143,-6.93196],[110.46144,-6.932],[110.4614,-6.9321],[110.46128,-6.93216],[110.46124,-6.9322],[110.46127,-6.93226],[110.46131,-6.93232],[110.46126,-6.93238],[110.46117,-6.9324],[110.46111,-6.93238],[110.46107,-6.93233],[110.46102,-6.93239],[110.46099,-6.93241],[110.46101,-6.93244],[110.461,-6.93248],[110.46091,-6.93247],[110.46087,-6.9325],[110.46073,-6.93255],[110.46063,-6.93259],[110.46076,-6.93276],[110.46079,-6.93281],[110.46053,-6.93297],[110.4603,-6.93278],[110.46012,-6.93262],[110.45998,-6.93263],[110.45994,-6.93265],[110.46005,-6.93277],[110.46018,-6.93299],[110.45994,-6.93322],[110.45981,-6.9333],[110.45964,-6.93335],[110.45952,-6.93336],[110.45942,-6.93332],[110.45934,-6.93317],[110.45929,-6.93333],[110.45915,-6.9335],[110.45887,-6.9336],[110.45869,-6.93373],[110.45855,-6.93389],[110.45781,-6.93449],[110.45759,-6.93458],[110.45751,-6.93467],[110.45744,-6.9348],[110.45731,-6.93496],[110.45718,-6.93505],[110.45712,-6.93507],[110.45693,-6.93527],[110.45684,-6.93532],[110.45676,-6.93531],[110.45666,-6.93539],[110.45638,-6.93549],[110.45612,-6.93549],[110.45614,-6.93551],[110.45663,-6.93589],[110.45681,-6.9364],[110.45724,-6.93698],[110.45848,-6.93861],[110.4588,-6.93909],[110.45901,-6.93941],[110.46054,-6.94167],[110.46131,-6.94277],[110.46152,-6.94319],[110.46174,-6.94346],[110.46195,-6.94366],[110.46243,-6.94402],[110.46289,-6.94445],[110.46389,-6.94509],[110.46449,-6.9455],[110.46509,-6.94592],[110.46537,-6.94603],[110.4656,-6.94622],[110.46716,-6.9471],[110.46761,-6.94735],[110.46846,-6.94782],[110.46879,-6.94798],[110.46924,-6.94818],[110.46956,-6.94837],[110.46987,-6.94855],[110.47043,-6.94883],[110.47055,-6.94891],[110.47064,-6.94906],[110.47067,-6.9491],[110.47069,-6.95019],[110.47069,-6.95113],[110.47069,-6.95167],[110.47068,-6.95292],[110.47068,-6.95331],[110.47068,-6.95472],[110.47072,-6.95495],[110.47072,-6.95498],[110.47074,-6.95504],[110.47098,-6.95499],[110.47154,-6.95482],[110.47194,-6.95471],[110.47236,-6.95459],[110.47242,-6.95457],[110.47276,-6.95446],[110.47314,-6.95432],[110.47344,-6.95422],[110.47384,-6.95407],[110.47428,-6.9539],[110.47462,-6.95377],[110.47485,-6.95368],[110.47495,-6.95365],[110.47593,-6.95322],[110.47596,-6.9532],[110.47761,-6.95255],[110.47772,-6.9525],[110.47775,-6.9525],[110.47783,-6.95247],[110.47795,-6.95242],[110.47849,-6.95223],[110.47868,-6.95216],[110.47912,-6.95199],[110.47957,-6.95183],[110.47965,-6.9518],[110.47994,-6.95169],[110.48,-6.95167],[110.48011,-6.95163],[110.48028,-6.95155],[110.48068,-6.95141],[110.48093,-6.95131],[110.48123,-6.9512],[110.48127,-6.95118],[110.48167,-6.95103],[110.48337,-6.95042],[110.48383,-6.95025],[110.48461,-6.94995],[110.48494,-6.94981],[110.48553,-6.94958],[110.48563,-6.94954],[110.48578,-6.94949],[110.48605,-6.94939],[110.48609,-6.94938],[110.48644,-6.94927],[110.48718,-6.94898],[110.4881,-6.94866],[110.48811,-6.94852],[110.48841,-6.94702],[110.48845,-6.94669],[110.4884,-6.94665],[110.48713,-6.94644],[110.48454,-6.94596],[110.48316,-6.94576],[110.48213,-6.94562],[110.48111,-6.94544],[110.47977,-6.94502],[110.47932,-6.94488],[110.47775,-6.94409],[110.47547,-6.943],[110.47432,-6.94258],[110.47371,-6.94237],[110.47309,-6.94198],[110.47265,-6.94164],[110.47239,-6.94131],[110.47224,-6.94123],[110.47192,-6.94102],[110.47182,-6.9409],[110.4717,-6.9408],[110.4711,-6.94037],[110.47078,-6.94007],[110.47047,-6.93985],[110.47031,-6.93967],[110.47023,-6.93958],[110.47007,-6.93937],[110.46983,-6.9392],[110.46934,-6.93886],[110.46931,-6.93875],[110.46934,-6.93857],[110.46946,-6.93814],[110.46943,-6.93803],[110.46935,-6.93794],[110.46923,-6.93788],[110.46903,-6.9378],[110.46875,-6.93764],[110.46848,-6.93753],[110.46807,-6.93742],[110.46775,-6.93736],[110.46768,-6.93733],[110.46771,-6.93686],[110.4678,-6.93671],[110.46789,-6.93658],[110.4679,-6.93648],[110.46787,-6.9363],[110.46771,-6.93602],[110.46758,-6.93589],[110.46722,-6.93559],[110.46703,-6.93531],[110.46675,-6.93486],[110.46667,-6.93464],[110.46657,-6.93433],[110.46645,-6.93418],[110.4663,-6.93411],[110.46617,-6.93403],[110.46571,-6.93366],[110.46562,-6.93366],[110.4655,-6.93367],[110.46539,-6.93359],[110.46488,-6.93326],[110.4648,-6.93329],[110.46466,-6.9334],[110.46449,-6.93354],[110.46445,-6.93349],[110.46433,-6.93321],[110.46411,-6.93272],[110.46402,-6.93261],[110.46394,-6.93259],[110.46376,-6.9326],[110.46367,-6.93245],[110.46357,-6.93225],[110.46321,-6.93152]]]}},{"type":"Feature","properties":{"id":"KEL-TERBOYO-WETAN","name":"Terboyo Wetan","source_name":"Terboyo Wetan","type":"Kelurahan","category":"Batas kelurahan","kecamatan":"Genuk","kabupaten":"Kota Semarang","rob":"Sangat tinggi","subsidence":"Sangat tinggi","alih":"Industri","guna":"Pergudangan di bekas tambak","catatan":"Lantai gudang sudah dekat muka air pasang. Alih fungsi dari tambak terjadi bertahun-tahun.","status":"Batas dari berkas vektor; kelas tematik adalah interpretasi","location":"Genuk, Kota Semarang","observation":"Sangat tinggi","description":"Lantai gudang sudah dekat muka air pasang. Alih fungsi dari tambak terjadi bertahun-tahun.","last_update":"2026"},"geometry":{"type":"Polygon","coordinates":[[[110.45612,-6.93549],[110.45606,-6.93549],[110.45602,-6.93547],[110.45589,-6.93549],[110.45582,-6.9355],[110.45579,-6.93554],[110.45585,-6.9356],[110.45588,-6.93563],[110.4557,-6.93573],[110.45558,-6.93585],[110.4555,-6.93591],[110.45545,-6.93595],[110.45531,-6.93586],[110.45523,-6.93582],[110.45485,-6.93589],[110.45469,-6.93574],[110.45343,-6.93617],[110.45341,-6.93618],[110.45306,-6.93632],[110.45292,-6.93635],[110.45292,-6.93634],[110.45003,-6.93733],[110.44989,-6.93731],[110.44963,-6.93721],[110.44932,-6.93714],[110.44923,-6.93713],[110.44913,-6.93832],[110.44919,-6.93882],[110.44958,-6.93953],[110.45065,-6.94141],[110.45186,-6.94338],[110.45273,-6.94468],[110.45331,-6.94534],[110.45435,-6.94642],[110.45581,-6.94822],[110.45797,-6.9495],[110.45811,-6.94963],[110.45921,-6.95014],[110.46,-6.95051],[110.46021,-6.95062],[110.4605,-6.95073],[110.46047,-6.95085],[110.4604,-6.95097],[110.46033,-6.95103],[110.46011,-6.95103],[110.46004,-6.95104],[110.4599,-6.9512],[110.45985,-6.95126],[110.45975,-6.95126],[110.45965,-6.95125],[110.45941,-6.95153],[110.45933,-6.95162],[110.45923,-6.95166],[110.45915,-6.95165],[110.45906,-6.95162],[110.45877,-6.95192],[110.45876,-6.95196],[110.45921,-6.95212],[110.4593,-6.95218],[110.45946,-6.95222],[110.45955,-6.95218],[110.45968,-6.95222],[110.46001,-6.95235],[110.46087,-6.95259],[110.4614,-6.95272],[110.46172,-6.95279],[110.46194,-6.95283],[110.46202,-6.95283],[110.46204,-6.95293],[110.46216,-6.95294],[110.4622,-6.95305],[110.46243,-6.95308],[110.46272,-6.95313],[110.46279,-6.95316],[110.4629,-6.9532],[110.46287,-6.95353],[110.4628,-6.95472],[110.46274,-6.95558],[110.46271,-6.95586],[110.46281,-6.95585],[110.46281,-6.95595],[110.46281,-6.95599],[110.4628,-6.95604],[110.46306,-6.95601],[110.46372,-6.95598],[110.46397,-6.95598],[110.464,-6.95597],[110.46419,-6.95595],[110.46457,-6.95591],[110.46544,-6.95583],[110.46549,-6.95583],[110.46557,-6.95582],[110.46604,-6.95578],[110.46784,-6.9556],[110.46814,-6.95557],[110.46838,-6.95555],[110.46853,-6.95554],[110.46896,-6.95544],[110.46996,-6.95522],[110.47029,-6.95515],[110.47051,-6.9551],[110.47074,-6.95504],[110.47072,-6.95498],[110.47072,-6.95495],[110.47068,-6.95472],[110.47068,-6.95331],[110.47068,-6.95292],[110.47069,-6.95167],[110.47069,-6.95113],[110.47069,-6.95019],[110.47067,-6.9491],[110.47064,-6.94906],[110.47055,-6.94891],[110.47043,-6.94883],[110.46987,-6.94855],[110.46956,-6.94837],[110.46924,-6.94818],[110.46879,-6.94798],[110.46846,-6.94782],[110.46761,-6.94735],[110.46716,-6.9471],[110.4656,-6.94622],[110.46537,-6.94603],[110.46509,-6.94592],[110.46449,-6.9455],[110.46389,-6.94509],[110.46289,-6.94445],[110.46243,-6.94402],[110.46195,-6.94366],[110.46174,-6.94346],[110.46152,-6.94319],[110.46131,-6.94277],[110.46054,-6.94167],[110.45901,-6.93941],[110.4588,-6.93909],[110.45848,-6.93861],[110.45724,-6.93698],[110.45681,-6.9364],[110.45663,-6.93589],[110.45614,-6.93551],[110.45612,-6.93549]]]}},{"type":"Feature","properties":{"id":"KEL-TERBOYO-KULON","name":"Terboyo Kulon","source_name":"Terboto Kulon","type":"Kelurahan","category":"Batas kelurahan","kecamatan":"Genuk","kabupaten":"Kota Semarang","rob":"Sangat tinggi","subsidence":"Sangat tinggi","alih":"Industri","guna":"Koridor Terboyo","catatan":"Pada berkas tertulis Terboto Kulon. Ini Terboyo Kulon, di jalan industri yang sering tergenang saat pasang.","status":"Batas dari berkas vektor; kelas tematik adalah interpretasi","location":"Genuk, Kota Semarang","observation":"Sangat tinggi","description":"Pada berkas tertulis Terboto Kulon. Ini Terboyo Kulon, di jalan industri yang sering tergenang saat pasang.","last_update":"2026"},"geometry":{"type":"Polygon","coordinates":[[[110.44923,-6.93713],[110.44895,-6.93712],[110.44862,-6.93723],[110.44822,-6.93721],[110.44757,-6.93715],[110.44704,-6.9369],[110.447,-6.93692],[110.44694,-6.93692],[110.44688,-6.93682],[110.44656,-6.93673],[110.44638,-6.9367],[110.44614,-6.93677],[110.44603,-6.93682],[110.44603,-6.93687],[110.44587,-6.93704],[110.44572,-6.93711],[110.44567,-6.93711],[110.44563,-6.93715],[110.44554,-6.93744],[110.44553,-6.93745],[110.44554,-6.93762],[110.44552,-6.93769],[110.44528,-6.93783],[110.44509,-6.93792],[110.44502,-6.938],[110.44497,-6.93827],[110.44492,-6.93842],[110.44482,-6.93855],[110.44466,-6.93867],[110.44438,-6.93889],[110.44434,-6.93892],[110.44421,-6.93915],[110.44415,-6.93927],[110.44407,-6.93932],[110.44399,-6.93932],[110.4435,-6.94062],[110.44273,-6.94291],[110.44195,-6.94522],[110.44144,-6.94663],[110.44091,-6.94815],[110.44062,-6.94909],[110.44032,-6.94999],[110.44147,-6.94982],[110.44248,-6.94971],[110.44386,-6.94967],[110.44491,-6.94976],[110.44609,-6.95005],[110.44773,-6.95068],[110.44787,-6.9507],[110.44823,-6.95076],[110.4487,-6.95089],[110.44903,-6.95131],[110.44906,-6.95194],[110.44896,-6.95328],[110.4489,-6.95436],[110.44891,-6.95459],[110.44887,-6.95501],[110.44894,-6.95528],[110.44896,-6.9554],[110.44897,-6.95553],[110.44901,-6.95567],[110.44891,-6.95612],[110.44888,-6.95621],[110.4486,-6.95765],[110.44919,-6.95745],[110.45005,-6.95723],[110.45068,-6.95714],[110.45117,-6.9571],[110.45148,-6.95708],[110.45217,-6.95705],[110.4531,-6.95699],[110.45317,-6.95699],[110.45329,-6.95698],[110.45376,-6.95693],[110.45409,-6.9569],[110.45412,-6.9569],[110.45432,-6.9569],[110.45481,-6.95685],[110.45501,-6.95683],[110.45582,-6.95676],[110.45651,-6.95671],[110.45682,-6.95669],[110.45781,-6.9566],[110.45813,-6.95656],[110.45854,-6.95651],[110.45856,-6.95651],[110.45985,-6.95639],[110.46093,-6.95628],[110.46095,-6.95628],[110.46111,-6.95626],[110.4619,-6.95616],[110.46214,-6.95613],[110.46241,-6.9561],[110.4628,-6.95604],[110.46281,-6.95599],[110.46281,-6.95595],[110.46281,-6.95585],[110.46271,-6.95586],[110.46274,-6.95558],[110.4628,-6.95472],[110.46287,-6.95353],[110.4629,-6.9532],[110.46279,-6.95316],[110.46272,-6.95313],[110.46243,-6.95308],[110.4622,-6.95305],[110.46216,-6.95294],[110.46204,-6.95293],[110.46202,-6.95283],[110.46194,-6.95283],[110.46172,-6.95279],[110.4614,-6.95272],[110.46087,-6.95259],[110.46001,-6.95235],[110.45968,-6.95222],[110.45955,-6.95218],[110.45946,-6.95222],[110.4593,-6.95218],[110.45921,-6.95212],[110.45876,-6.95196],[110.45877,-6.95192],[110.45906,-6.95162],[110.45915,-6.95165],[110.45923,-6.95166],[110.45933,-6.95162],[110.45941,-6.95153],[110.45965,-6.95125],[110.45975,-6.95126],[110.45985,-6.95126],[110.4599,-6.9512],[110.46004,-6.95104],[110.46011,-6.95103],[110.46033,-6.95103],[110.4604,-6.95097],[110.46047,-6.95085],[110.4605,-6.95073],[110.46021,-6.95062],[110.46,-6.95051],[110.45921,-6.95014],[110.45811,-6.94963],[110.45797,-6.9495],[110.45581,-6.94822],[110.45435,-6.94642],[110.45331,-6.94534],[110.45273,-6.94468],[110.45186,-6.94338],[110.45065,-6.94141],[110.44958,-6.93953],[110.44919,-6.93882],[110.44913,-6.93832],[110.44923,-6.93713]]]}},{"type":"Feature","properties":{"id":"KEL-GEBANGSARI","name":"Gebangsari","source_name":"Gebangsari","type":"Kelurahan","category":"Batas kelurahan","kecamatan":"Genuk","kabupaten":"Kota Semarang","rob":"Tinggi","subsidence":"Tinggi","alih":"Industri","guna":"Industri dan permukiman","catatan":"Sebagian tambak sudah menjadi halaman industri, sebagian masih terbuka.","status":"Batas dari berkas vektor; kelas tematik adalah interpretasi","location":"Genuk, Kota Semarang","observation":"Tinggi","description":"Sebagian tambak sudah menjadi halaman industri, sebagian masih terbuka.","last_update":"2026"},"geometry":{"type":"Polygon","coordinates":[[[110.46918,-6.96949],[110.46921,-6.96922],[110.46928,-6.96871],[110.4693,-6.96852],[110.46931,-6.96841],[110.46935,-6.96813],[110.46939,-6.96789],[110.46942,-6.96771],[110.46948,-6.96743],[110.46952,-6.96723],[110.46957,-6.96688],[110.46957,-6.96684],[110.46957,-6.96665],[110.46956,-6.9653],[110.46956,-6.96504],[110.46957,-6.96406],[110.46957,-6.96372],[110.46957,-6.96338],[110.46957,-6.96324],[110.46958,-6.96243],[110.46955,-6.96195],[110.46953,-6.96174],[110.4695,-6.96123],[110.46948,-6.96087],[110.46948,-6.96077],[110.46947,-6.96062],[110.46946,-6.96006],[110.46945,-6.95997],[110.46943,-6.95976],[110.46939,-6.9596],[110.46933,-6.95925],[110.46931,-6.95917],[110.46928,-6.95909],[110.46922,-6.95887],[110.46877,-6.95712],[110.46875,-6.95703],[110.46874,-6.95697],[110.46869,-6.95679],[110.46845,-6.95582],[110.46838,-6.95555],[110.46814,-6.95557],[110.46784,-6.9556],[110.46604,-6.95578],[110.46557,-6.95582],[110.46549,-6.95583],[110.46544,-6.95583],[110.46457,-6.95591],[110.46419,-6.95595],[110.464,-6.95597],[110.46397,-6.95598],[110.46372,-6.95598],[110.46306,-6.95601],[110.4628,-6.95604],[110.46241,-6.9561],[110.46214,-6.95613],[110.46211,-6.95636],[110.46211,-6.95708],[110.46205,-6.95819],[110.46203,-6.95863],[110.46204,-6.96042],[110.46204,-6.96048],[110.46203,-6.96088],[110.46203,-6.96156],[110.46204,-6.96227],[110.46208,-6.96375],[110.46208,-6.96406],[110.46211,-6.96444],[110.46212,-6.96475],[110.46213,-6.96532],[110.46215,-6.96646],[110.46216,-6.96662],[110.46218,-6.9676],[110.46222,-6.96806],[110.46225,-6.96859],[110.46229,-6.96937],[110.46255,-6.96942],[110.46259,-6.96943],[110.46282,-6.96943],[110.46287,-6.96943],[110.46347,-6.96943],[110.46368,-6.96943],[110.46402,-6.96944],[110.46411,-6.96943],[110.46436,-6.96943],[110.46441,-6.96944],[110.46507,-6.96944],[110.46549,-6.96943],[110.46558,-6.96943],[110.46583,-6.96942],[110.46592,-6.96942],[110.46624,-6.96949],[110.46634,-6.96951],[110.46658,-6.96957],[110.46679,-6.96962],[110.46682,-6.96962],[110.4673,-6.96971],[110.4675,-6.96975],[110.4681,-6.96989],[110.46851,-6.9699],[110.46859,-6.96988],[110.46874,-6.96985],[110.46891,-6.96987],[110.46902,-6.96988],[110.46909,-6.96989],[110.46913,-6.96987],[110.46918,-6.96949]]]}},{"type":"Feature","properties":{"id":"KEL-MUKTIHARJO-LOR","name":"Muktiharjo Lor","source_name":"Muktiharjo Lor","type":"Kelurahan","category":"Batas kelurahan","kecamatan":"Genuk","kabupaten":"Kota Semarang","rob":"Tinggi","subsidence":"Tinggi","alih":"Campuran","guna":"Industri dan kampung","catatan":"Transisi antara koridor industri Terboyo dan permukiman Genuk.","status":"Batas dari berkas vektor; kelas tematik adalah interpretasi","location":"Genuk, Kota Semarang","observation":"Tinggi","description":"Transisi antara koridor industri Terboyo dan permukiman Genuk.","last_update":"2026"},"geometry":{"type":"Polygon","coordinates":[[[110.46229,-6.96937],[110.46225,-6.96859],[110.46222,-6.96806],[110.46218,-6.9676],[110.46216,-6.96662],[110.46215,-6.96646],[110.46213,-6.96532],[110.46212,-6.96475],[110.46211,-6.96444],[110.46208,-6.96406],[110.46208,-6.96375],[110.46204,-6.96227],[110.46203,-6.96156],[110.46203,-6.96088],[110.46204,-6.96048],[110.46204,-6.96042],[110.46203,-6.95863],[110.46205,-6.95819],[110.46211,-6.95708],[110.46211,-6.95636],[110.46214,-6.95613],[110.4619,-6.95616],[110.46111,-6.95626],[110.46095,-6.95628],[110.46093,-6.95628],[110.45985,-6.95639],[110.45856,-6.95651],[110.45854,-6.95651],[110.45813,-6.95656],[110.45781,-6.9566],[110.45682,-6.95669],[110.45651,-6.95671],[110.45582,-6.95676],[110.45501,-6.95683],[110.45481,-6.95685],[110.45432,-6.9569],[110.45412,-6.9569],[110.45409,-6.9569],[110.45376,-6.95693],[110.45329,-6.95698],[110.45317,-6.95699],[110.4531,-6.95699],[110.45217,-6.95705],[110.45148,-6.95708],[110.45117,-6.9571],[110.45068,-6.95714],[110.45005,-6.95723],[110.44919,-6.95745],[110.4486,-6.95765],[110.44827,-6.95969],[110.44832,-6.95974],[110.44891,-6.9603],[110.44911,-6.9605],[110.44929,-6.96066],[110.4496,-6.96094],[110.44963,-6.96097],[110.44969,-6.96103],[110.44973,-6.96107],[110.44975,-6.96108],[110.45012,-6.96142],[110.45037,-6.96164],[110.451,-6.9622],[110.45144,-6.96259],[110.45181,-6.9629],[110.45211,-6.96316],[110.45226,-6.9633],[110.45315,-6.9641],[110.45334,-6.96427],[110.4535,-6.9644],[110.45354,-6.96443],[110.45441,-6.96523],[110.45493,-6.96568],[110.45534,-6.96605],[110.45542,-6.96612],[110.45559,-6.96628],[110.45568,-6.96636],[110.45593,-6.96658],[110.45608,-6.96671],[110.45663,-6.96722],[110.45776,-6.96824],[110.45797,-6.96843],[110.45823,-6.96867],[110.4588,-6.96919],[110.4593,-6.96964],[110.45966,-6.96995],[110.46018,-6.9704],[110.46123,-6.97132],[110.46154,-6.97158],[110.46215,-6.97213],[110.46221,-6.97207],[110.46222,-6.97204],[110.46223,-6.97202],[110.46227,-6.97197],[110.4623,-6.97193],[110.46258,-6.97121],[110.46262,-6.9711],[110.46266,-6.971],[110.46284,-6.9704],[110.46291,-6.97016],[110.46292,-6.97012],[110.46284,-6.9701],[110.46245,-6.96988],[110.46239,-6.96985],[110.46236,-6.96984],[110.46233,-6.96982],[110.46229,-6.9698],[110.46229,-6.9697],[110.4623,-6.96959],[110.46229,-6.96937]]]}},{"type":"Feature","properties":{"id":"KEL-GENUKSARI","name":"Genuksari","source_name":"Genuksari","type":"Kelurahan","category":"Batas kelurahan","kecamatan":"Genuk","kabupaten":"Kota Semarang","rob":"Sedang","subsidence":"Tinggi","alih":"Campuran","guna":"Permukiman dan tambak","catatan":"Permukiman tumbuh di antara tambak. Tanahnya termasuk yang cepat turun.","status":"Batas dari berkas vektor; kelas tematik adalah interpretasi","location":"Genuk, Kota Semarang","observation":"Sedang","description":"Permukiman tumbuh di antara tambak. Tanahnya termasuk yang cepat turun.","last_update":"2026"},"geometry":{"type":"Polygon","coordinates":[[[110.48185,-6.96924],[110.48148,-6.96908],[110.48112,-6.96864],[110.48039,-6.9676],[110.48024,-6.96734],[110.48009,-6.96707],[110.47986,-6.96668],[110.47963,-6.96633],[110.47952,-6.96616],[110.47937,-6.96589],[110.47929,-6.96574],[110.47914,-6.96546],[110.47908,-6.96529],[110.47906,-6.96525],[110.47904,-6.96519],[110.47893,-6.96485],[110.47889,-6.96471],[110.47872,-6.9641],[110.47868,-6.96394],[110.4786,-6.96365],[110.47856,-6.9635],[110.47859,-6.96294],[110.4786,-6.96269],[110.47861,-6.96249],[110.47865,-6.96177],[110.47866,-6.9617],[110.47878,-6.96077],[110.47882,-6.96046],[110.47894,-6.95997],[110.47901,-6.95969],[110.47906,-6.95948],[110.47919,-6.95907],[110.47923,-6.95894],[110.47931,-6.95867],[110.4796,-6.95774],[110.47972,-6.95733],[110.47974,-6.95728],[110.47981,-6.95731],[110.47984,-6.95732],[110.47988,-6.95733],[110.47991,-6.95721],[110.47996,-6.95697],[110.48015,-6.95648],[110.4802,-6.95636],[110.4803,-6.95604],[110.48031,-6.95594],[110.48033,-6.9556],[110.48036,-6.95531],[110.48038,-6.95519],[110.48041,-6.95505],[110.48049,-6.95435],[110.48056,-6.95373],[110.48062,-6.9533],[110.48064,-6.95317],[110.48065,-6.95311],[110.48065,-6.95311],[110.48065,-6.95306],[110.48069,-6.95278],[110.48073,-6.9524],[110.48079,-6.95216],[110.4808,-6.95211],[110.48082,-6.95186],[110.48079,-6.9517],[110.48079,-6.95169],[110.48068,-6.95141],[110.48028,-6.95155],[110.48011,-6.95163],[110.48,-6.95167],[110.47994,-6.95169],[110.47965,-6.9518],[110.47957,-6.95183],[110.47912,-6.95199],[110.47868,-6.95216],[110.47849,-6.95223],[110.47795,-6.95242],[110.47783,-6.95247],[110.47775,-6.9525],[110.47772,-6.9525],[110.47761,-6.95255],[110.47596,-6.9532],[110.47593,-6.95322],[110.47495,-6.95365],[110.47485,-6.95368],[110.47462,-6.95377],[110.47428,-6.9539],[110.47384,-6.95407],[110.47344,-6.95422],[110.47314,-6.95432],[110.47276,-6.95446],[110.47242,-6.95457],[110.47236,-6.95459],[110.47194,-6.95471],[110.47154,-6.95482],[110.47098,-6.95499],[110.47074,-6.95504],[110.47051,-6.9551],[110.47029,-6.95515],[110.46996,-6.95522],[110.46896,-6.95544],[110.46853,-6.95554],[110.46838,-6.95555],[110.46845,-6.95582],[110.46869,-6.95679],[110.46874,-6.95697],[110.46875,-6.95703],[110.46877,-6.95712],[110.46922,-6.95887],[110.46928,-6.95909],[110.46931,-6.95917],[110.46933,-6.95925],[110.46939,-6.9596],[110.46943,-6.95976],[110.46945,-6.95997],[110.46946,-6.96006],[110.46947,-6.96062],[110.46948,-6.96077],[110.46948,-6.96087],[110.4695,-6.96123],[110.46953,-6.96174],[110.46955,-6.96195],[110.46958,-6.96243],[110.46957,-6.96324],[110.46957,-6.96338],[110.46957,-6.96372],[110.46957,-6.96406],[110.46956,-6.96504],[110.46956,-6.9653],[110.46957,-6.96665],[110.46957,-6.96684],[110.46957,-6.96688],[110.46952,-6.96723],[110.46948,-6.96743],[110.46942,-6.96771],[110.46939,-6.96789],[110.46935,-6.96813],[110.46931,-6.96841],[110.4693,-6.96852],[110.46928,-6.96871],[110.46921,-6.96922],[110.46918,-6.96949],[110.46922,-6.9695],[110.46946,-6.96952],[110.46965,-6.96954],[110.46979,-6.96956],[110.47143,-6.96977],[110.47193,-6.96987],[110.47208,-6.9699],[110.47211,-6.96991],[110.47262,-6.96996],[110.47322,-6.96999],[110.47338,-6.97002],[110.47398,-6.97014],[110.47431,-6.9702],[110.47436,-6.97022],[110.47475,-6.97038],[110.47487,-6.97045],[110.4749,-6.97054],[110.47512,-6.97075],[110.47536,-6.97095],[110.47558,-6.97106],[110.47699,-6.97165],[110.47705,-6.97145],[110.47714,-6.97119],[110.47721,-6.97121],[110.47795,-6.97142],[110.47844,-6.9716],[110.47849,-6.9716],[110.47865,-6.97162],[110.4791,-6.97166],[110.47908,-6.9717],[110.47916,-6.97179],[110.47931,-6.97189],[110.47936,-6.97192],[110.47946,-6.97204],[110.47948,-6.97209],[110.47947,-6.97211],[110.47941,-6.97254],[110.47925,-6.97321],[110.47936,-6.97327],[110.47952,-6.97331],[110.47974,-6.97339],[110.47974,-6.97353],[110.47968,-6.97377],[110.47963,-6.97398],[110.47953,-6.97433],[110.48053,-6.97467],[110.48083,-6.97477],[110.48112,-6.97482],[110.48141,-6.97484],[110.48141,-6.97474],[110.48144,-6.97453],[110.4816,-6.97409],[110.4816,-6.97395],[110.48161,-6.97382],[110.48161,-6.97353],[110.48166,-6.97311],[110.48162,-6.97294],[110.4816,-6.97285],[110.48157,-6.97274],[110.48159,-6.97255],[110.48161,-6.97241],[110.48163,-6.97225],[110.48162,-6.97201],[110.48155,-6.97192],[110.48144,-6.97187],[110.48127,-6.97179],[110.48124,-6.97172],[110.48124,-6.97158],[110.48128,-6.97137],[110.48135,-6.97098],[110.48136,-6.97093],[110.48142,-6.97073],[110.48155,-6.97031],[110.48162,-6.97006],[110.48174,-6.96965],[110.48181,-6.96942],[110.48182,-6.96937],[110.48185,-6.96924]]]}},{"type":"Feature","properties":{"id":"KEL-BANJARDOWO","name":"Banjardowo","source_name":"Banjardowo","type":"Kelurahan","category":"Batas kelurahan","kecamatan":"Genuk","kabupaten":"Kota Semarang","rob":"Tinggi","subsidence":"Tinggi","alih":"Tambak","guna":"Tambak yang terdesak","catatan":"Tambak masih ada, tetapi tekanan industri dan jalan pantai sudah masuk.","status":"Batas dari berkas vektor; kelas tematik adalah interpretasi","location":"Genuk, Kota Semarang","observation":"Tinggi","description":"Tambak masih ada, tetapi tekanan industri dan jalan pantai sudah masuk.","last_update":"2026"},"geometry":{"type":"Polygon","coordinates":[[[110.49218,-6.94729],[110.49214,-6.94719],[110.49214,-6.94718],[110.49214,-6.94718],[110.49214,-6.94718],[110.49212,-6.94719],[110.492,-6.94723],[110.49191,-6.94726],[110.49148,-6.94742],[110.49109,-6.94757],[110.491,-6.9476],[110.49053,-6.94778],[110.49006,-6.94795],[110.48966,-6.9481],[110.48951,-6.94816],[110.48864,-6.94847],[110.48852,-6.94852],[110.4882,-6.94863],[110.4882,-6.94862],[110.4881,-6.94866],[110.48718,-6.94898],[110.48644,-6.94927],[110.48609,-6.94938],[110.48605,-6.94939],[110.48578,-6.94949],[110.48563,-6.94954],[110.48553,-6.94958],[110.48494,-6.94981],[110.48461,-6.94995],[110.48383,-6.95025],[110.48337,-6.95042],[110.48167,-6.95103],[110.48127,-6.95118],[110.48123,-6.9512],[110.48093,-6.95131],[110.48068,-6.95141],[110.48079,-6.95169],[110.48079,-6.9517],[110.48082,-6.95186],[110.4808,-6.95211],[110.48079,-6.95216],[110.48073,-6.9524],[110.48069,-6.95278],[110.48065,-6.95306],[110.48065,-6.95311],[110.48065,-6.95311],[110.48064,-6.95317],[110.48062,-6.9533],[110.48056,-6.95373],[110.48049,-6.95435],[110.48041,-6.95505],[110.48038,-6.95519],[110.48036,-6.95531],[110.48033,-6.9556],[110.48031,-6.95594],[110.4803,-6.95604],[110.4802,-6.95636],[110.48015,-6.95648],[110.47996,-6.95697],[110.47991,-6.95721],[110.47988,-6.95733],[110.47984,-6.95732],[110.47981,-6.95731],[110.47974,-6.95728],[110.47972,-6.95733],[110.4796,-6.95774],[110.47931,-6.95867],[110.47923,-6.95894],[110.47919,-6.95907],[110.47906,-6.95948],[110.47901,-6.95969],[110.47894,-6.95997],[110.47882,-6.96046],[110.47878,-6.96077],[110.47866,-6.9617],[110.47865,-6.96177],[110.47861,-6.96249],[110.4786,-6.96269],[110.47859,-6.96294],[110.47856,-6.9635],[110.4786,-6.96365],[110.47868,-6.96394],[110.47872,-6.9641],[110.47889,-6.96471],[110.47893,-6.96485],[110.47904,-6.96519],[110.47906,-6.96525],[110.47908,-6.96529],[110.47914,-6.96546],[110.47929,-6.96574],[110.47937,-6.96589],[110.47952,-6.96616],[110.47963,-6.96633],[110.47986,-6.96668],[110.48009,-6.96707],[110.48024,-6.96734],[110.48039,-6.9676],[110.48112,-6.96864],[110.48148,-6.96908],[110.48185,-6.96924],[110.48193,-6.96927],[110.48233,-6.96935],[110.48382,-6.9697],[110.48415,-6.96987],[110.48448,-6.9701],[110.48468,-6.97021],[110.48578,-6.97079],[110.48595,-6.97088],[110.48638,-6.97103],[110.48685,-6.97118],[110.48696,-6.97123],[110.4871,-6.9713],[110.48723,-6.97138],[110.48745,-6.97153],[110.48759,-6.97159],[110.4876,-6.9716],[110.48836,-6.97187],[110.48842,-6.97189],[110.48843,-6.97183],[110.4886,-6.97191],[110.48872,-6.97196],[110.48894,-6.97203],[110.48907,-6.97207],[110.48935,-6.97216],[110.48956,-6.97226],[110.48958,-6.97223],[110.48971,-6.97188],[110.48977,-6.97174],[110.48993,-6.97133],[110.49002,-6.97101],[110.4902,-6.96998],[110.4902,-6.9697],[110.49017,-6.96943],[110.49,-6.96799],[110.4899,-6.96721],[110.48986,-6.96697],[110.48968,-6.9657],[110.48957,-6.96493],[110.48946,-6.96403],[110.48928,-6.9627],[110.48921,-6.96238],[110.48902,-6.96059],[110.48899,-6.96039],[110.48893,-6.95988],[110.48892,-6.9598],[110.48889,-6.95963],[110.48882,-6.95916],[110.48878,-6.95886],[110.48878,-6.95831],[110.48878,-6.95803],[110.48879,-6.95771],[110.48886,-6.95625],[110.48888,-6.95599],[110.48889,-6.95562],[110.48896,-6.95565],[110.48909,-6.9557],[110.48926,-6.95577],[110.48932,-6.9557],[110.4894,-6.95557],[110.48945,-6.9555],[110.48946,-6.95549],[110.48955,-6.95538],[110.49,-6.95471],[110.49003,-6.95451],[110.49023,-6.95375],[110.49011,-6.95347],[110.49017,-6.95331],[110.49046,-6.95262],[110.49057,-6.95226],[110.49066,-6.95199],[110.49083,-6.9517],[110.49115,-6.95127],[110.49114,-6.95111],[110.49111,-6.95075],[110.49115,-6.95053],[110.49123,-6.95014],[110.49129,-6.94989],[110.4913,-6.94982],[110.49131,-6.94979],[110.49145,-6.9494],[110.49151,-6.94918],[110.49159,-6.94889],[110.49161,-6.94881],[110.49168,-6.94857],[110.4917,-6.94851],[110.49172,-6.94837],[110.49176,-6.94831],[110.49178,-6.94825],[110.49187,-6.94815],[110.49189,-6.94814],[110.49196,-6.94805],[110.49219,-6.94789],[110.49221,-6.94754],[110.49217,-6.94731],[110.49218,-6.94729]]]}},{"type":"Feature","properties":{"id":"KEL-KARANGROTO","name":"Karangroto","source_name":"Karangroto","type":"Kelurahan","category":"Batas kelurahan","kecamatan":"Genuk","kabupaten":"Kota Semarang","rob":"Sedang","subsidence":"Sedang","alih":"Tambak","guna":"Tambak timur","catatan":"Masih banyak lahan basah. Rob sedang, bukan genangan harian seperti di Terboyo.","status":"Batas dari berkas vektor; kelas tematik adalah interpretasi","location":"Genuk, Kota Semarang","observation":"Sedang","description":"Masih banyak lahan basah. Rob sedang, bukan genangan harian seperti di Terboyo.","last_update":"2026"},"geometry":{"type":"Polygon","coordinates":[[[110.50183,-6.95532],[110.5018,-6.95506],[110.50147,-6.95409],[110.50094,-6.95277],[110.50078,-6.95237],[110.50075,-6.95238],[110.50049,-6.95244],[110.49925,-6.95279],[110.49883,-6.95289],[110.49878,-6.9529],[110.4987,-6.95292],[110.49865,-6.95293],[110.49779,-6.95317],[110.49721,-6.95332],[110.4972,-6.95332],[110.49716,-6.95333],[110.49685,-6.95342],[110.49495,-6.95394],[110.49381,-6.95427],[110.49338,-6.9544],[110.49265,-6.95459],[110.49182,-6.95482],[110.49108,-6.95499],[110.49057,-6.95508],[110.49049,-6.9551],[110.49036,-6.95512],[110.49023,-6.95514],[110.49006,-6.95503],[110.49001,-6.95495],[110.48998,-6.95485],[110.49,-6.95471],[110.48955,-6.95538],[110.48946,-6.95549],[110.48945,-6.9555],[110.4894,-6.95557],[110.48932,-6.9557],[110.48926,-6.95577],[110.48909,-6.9557],[110.48896,-6.95565],[110.48889,-6.95562],[110.48888,-6.95599],[110.48886,-6.95625],[110.48879,-6.95771],[110.48878,-6.95803],[110.48878,-6.95831],[110.48878,-6.95886],[110.48882,-6.95916],[110.48889,-6.95963],[110.48892,-6.9598],[110.48893,-6.95988],[110.48899,-6.96039],[110.48902,-6.96059],[110.48921,-6.96238],[110.48928,-6.9627],[110.48946,-6.96403],[110.48957,-6.96493],[110.48968,-6.9657],[110.48986,-6.96697],[110.4899,-6.96721],[110.49,-6.96799],[110.49017,-6.96943],[110.4902,-6.9697],[110.4902,-6.96998],[110.49002,-6.97101],[110.48993,-6.97133],[110.48977,-6.97174],[110.48971,-6.97188],[110.48958,-6.97223],[110.48956,-6.97226],[110.48977,-6.97237],[110.48996,-6.97246],[110.49053,-6.97275],[110.4908,-6.97293],[110.49104,-6.97305],[110.49214,-6.97338],[110.49224,-6.9734],[110.49257,-6.9735],[110.49351,-6.97372],[110.49381,-6.97379],[110.49391,-6.97381],[110.49451,-6.97396],[110.49509,-6.97412],[110.49586,-6.97429],[110.49643,-6.97444],[110.49657,-6.97447],[110.49716,-6.97462],[110.49723,-6.97464],[110.49744,-6.97468],[110.49743,-6.97438],[110.49737,-6.97392],[110.49732,-6.9736],[110.49726,-6.97324],[110.49724,-6.97308],[110.49705,-6.97204],[110.49704,-6.972],[110.4969,-6.9717],[110.49682,-6.97148],[110.49669,-6.97116],[110.49665,-6.97102],[110.49662,-6.9708],[110.49661,-6.97071],[110.49659,-6.97049],[110.49657,-6.97022],[110.49655,-6.96994],[110.49653,-6.96983],[110.4965,-6.96957],[110.49649,-6.96955],[110.49646,-6.96929],[110.49642,-6.96901],[110.49642,-6.96898],[110.49636,-6.96846],[110.49638,-6.96824],[110.49655,-6.96772],[110.49688,-6.96723],[110.49703,-6.96688],[110.49706,-6.96668],[110.4971,-6.96626],[110.49714,-6.96606],[110.49722,-6.96558],[110.49722,-6.96547],[110.49719,-6.96421],[110.49716,-6.96257],[110.49723,-6.9623],[110.49761,-6.96099],[110.49773,-6.96038],[110.4978,-6.96002],[110.49806,-6.95898],[110.49814,-6.95849],[110.49847,-6.95829],[110.49893,-6.95768],[110.49897,-6.9573],[110.49904,-6.95692],[110.49925,-6.95647],[110.49954,-6.95627],[110.5,-6.95616],[110.50087,-6.95595],[110.50111,-6.95586],[110.5013,-6.95574],[110.50178,-6.95535],[110.50183,-6.95532]]]}},{"type":"Feature","properties":{"id":"KEL-KUDU","name":"Kudu","source_name":"Kudu","type":"Kelurahan","category":"Batas kelurahan","kecamatan":"Genuk","kabupaten":"Kota Semarang","rob":"Sedang","subsidence":"Sedang","alih":"Tambak","guna":"Tambak timur","catatan":"Kelurahan tambak di ujung timur wilayah studi, berbatasan dengan Demak.","status":"Batas dari berkas vektor; kelas tematik adalah interpretasi","location":"Genuk, Kota Semarang","observation":"Sedang","description":"Kelurahan tambak di ujung timur wilayah studi, berbatasan dengan Demak.","last_update":"2026"},"geometry":{"type":"Polygon","coordinates":[[[110.50316,-6.97119],[110.50314,-6.97097],[110.50207,-6.96748],[110.50131,-6.9661],[110.50087,-6.96364],[110.50083,-6.96187],[110.50129,-6.96053],[110.50147,-6.96026],[110.50158,-6.96008],[110.50171,-6.95993],[110.50255,-6.95875],[110.50253,-6.95789],[110.50224,-6.95737],[110.50201,-6.95617],[110.50196,-6.95604],[110.50188,-6.95577],[110.50183,-6.95532],[110.50178,-6.95535],[110.5013,-6.95574],[110.50111,-6.95586],[110.50087,-6.95595],[110.5,-6.95616],[110.49954,-6.95627],[110.49925,-6.95647],[110.49904,-6.95692],[110.49897,-6.9573],[110.49893,-6.95768],[110.49847,-6.95829],[110.49814,-6.95849],[110.49806,-6.95898],[110.4978,-6.96002],[110.49773,-6.96038],[110.49761,-6.96099],[110.49723,-6.9623],[110.49716,-6.96257],[110.49719,-6.96421],[110.49722,-6.96547],[110.49722,-6.96558],[110.49714,-6.96606],[110.4971,-6.96626],[110.49706,-6.96668],[110.49703,-6.96688],[110.49688,-6.96723],[110.49655,-6.96772],[110.49638,-6.96824],[110.49636,-6.96846],[110.49642,-6.96898],[110.49642,-6.96901],[110.49646,-6.96929],[110.49649,-6.96955],[110.4965,-6.96957],[110.49653,-6.96983],[110.49655,-6.96994],[110.49657,-6.97022],[110.49659,-6.97049],[110.49661,-6.97071],[110.49662,-6.9708],[110.49665,-6.97102],[110.49669,-6.97116],[110.49682,-6.97148],[110.4969,-6.9717],[110.49704,-6.972],[110.49705,-6.97204],[110.49724,-6.97308],[110.49726,-6.97324],[110.49732,-6.9736],[110.49737,-6.97392],[110.49743,-6.97438],[110.49744,-6.97468],[110.49762,-6.97472],[110.49763,-6.97472],[110.49765,-6.97472],[110.49793,-6.97475],[110.49824,-6.97478],[110.49838,-6.9748],[110.49878,-6.97486],[110.49881,-6.97487],[110.49886,-6.97489],[110.49904,-6.97496],[110.49922,-6.975],[110.49957,-6.97511],[110.5,-6.97525],[110.50085,-6.97529],[110.50187,-6.9752],[110.50234,-6.97511],[110.50284,-6.97509],[110.50316,-6.97502],[110.50318,-6.97495],[110.50328,-6.97326],[110.50327,-6.97318],[110.50327,-6.97318],[110.50317,-6.97293],[110.50315,-6.97271],[110.50312,-6.97241],[110.50308,-6.972],[110.50305,-6.97155],[110.50309,-6.97136],[110.50316,-6.97119]]]}},{"type":"Feature","properties":{"id":"KEL-BANGETAYU-KULON","name":"Bangetayu Kulon","source_name":"Bangetayu Kulon","type":"Kelurahan","category":"Batas kelurahan","kecamatan":"Genuk","kabupaten":"Kota Semarang","rob":"Sedang","subsidence":"Sedang","alih":"Permukiman","guna":"Permukiman di bekas tambak","catatan":"Rumah tumbuh di lahan yang dulu tambak. Rob muncul bila pasang bertemu hujan.","status":"Batas dari berkas vektor; kelas tematik adalah interpretasi","location":"Genuk, Kota Semarang","observation":"Sedang","description":"Rumah tumbuh di lahan yang dulu tambak. Rob muncul bila pasang bertemu hujan.","last_update":"2026"},"geometry":{"type":"Polygon","coordinates":[[[110.46918,-6.96949],[110.46913,-6.96987],[110.46909,-6.96989],[110.46902,-6.96988],[110.46891,-6.96987],[110.46874,-6.96985],[110.46859,-6.96988],[110.46851,-6.9699],[110.4681,-6.96989],[110.4675,-6.96975],[110.4673,-6.96971],[110.46682,-6.96962],[110.46679,-6.96962],[110.46658,-6.96957],[110.46634,-6.96951],[110.46624,-6.96949],[110.46592,-6.96942],[110.46583,-6.96942],[110.46558,-6.96943],[110.46549,-6.96943],[110.46507,-6.96944],[110.46441,-6.96944],[110.46436,-6.96943],[110.46411,-6.96943],[110.46402,-6.96944],[110.46368,-6.96943],[110.46347,-6.96943],[110.46287,-6.96943],[110.46282,-6.96943],[110.46259,-6.96943],[110.46255,-6.96942],[110.46229,-6.96937],[110.4623,-6.96959],[110.46229,-6.9697],[110.46229,-6.9698],[110.46233,-6.96982],[110.46236,-6.96984],[110.46239,-6.96985],[110.46245,-6.96988],[110.46284,-6.9701],[110.46292,-6.97012],[110.46291,-6.97016],[110.46284,-6.9704],[110.46266,-6.971],[110.46262,-6.9711],[110.46258,-6.97121],[110.4623,-6.97193],[110.46227,-6.97197],[110.46223,-6.97202],[110.46222,-6.97204],[110.46221,-6.97207],[110.46215,-6.97213],[110.4625,-6.97245],[110.46259,-6.97253],[110.46267,-6.97259],[110.4627,-6.97263],[110.46273,-6.97265],[110.46278,-6.9727],[110.46285,-6.97276],[110.46301,-6.97289],[110.4632,-6.97306],[110.46322,-6.97309],[110.46406,-6.97382],[110.46426,-6.974],[110.46464,-6.97434],[110.46561,-6.97518],[110.46591,-6.97546],[110.46631,-6.97583],[110.46687,-6.97635],[110.46701,-6.97647],[110.4676,-6.97697],[110.46826,-6.97757],[110.46917,-6.97838],[110.46919,-6.97841],[110.46923,-6.97844],[110.46979,-6.97893],[110.47019,-6.97928],[110.47047,-6.97952],[110.47061,-6.97967],[110.47078,-6.97981],[110.4715,-6.98043],[110.47189,-6.98078],[110.47284,-6.98163],[110.47313,-6.98185],[110.47355,-6.98217],[110.47419,-6.98258],[110.47428,-6.98252],[110.47439,-6.9825],[110.4745,-6.98254],[110.47466,-6.98267],[110.47524,-6.98316],[110.47571,-6.98362],[110.47597,-6.98387],[110.47598,-6.98389],[110.47601,-6.9839],[110.47612,-6.98401],[110.47631,-6.98421],[110.47638,-6.98426],[110.47686,-6.98468],[110.47743,-6.98522],[110.47748,-6.98511],[110.4776,-6.98478],[110.47769,-6.98449],[110.47776,-6.98429],[110.47791,-6.98379],[110.47812,-6.98308],[110.47815,-6.98302],[110.47825,-6.98275],[110.4783,-6.98271],[110.47837,-6.98256],[110.47846,-6.9824],[110.47861,-6.98227],[110.47885,-6.98208],[110.47902,-6.9819],[110.47913,-6.98177],[110.47922,-6.98175],[110.47945,-6.9818],[110.47947,-6.9818],[110.47971,-6.98182],[110.4798,-6.98179],[110.47987,-6.98172],[110.47992,-6.98159],[110.47995,-6.98153],[110.47998,-6.98143],[110.47998,-6.98136],[110.48001,-6.98105],[110.48006,-6.98065],[110.48006,-6.98058],[110.48007,-6.98054],[110.48009,-6.98037],[110.4801,-6.98034],[110.48011,-6.98024],[110.48018,-6.97993],[110.48031,-6.97971],[110.48035,-6.97963],[110.48048,-6.9794],[110.48056,-6.97914],[110.48052,-6.97901],[110.48042,-6.97884],[110.48035,-6.97875],[110.48034,-6.97873],[110.48034,-6.97868],[110.48036,-6.97841],[110.48043,-6.97828],[110.48045,-6.97827],[110.48055,-6.97811],[110.48077,-6.97773],[110.48084,-6.97749],[110.48087,-6.9774],[110.48088,-6.97735],[110.48089,-6.97728],[110.48089,-6.97721],[110.48088,-6.97718],[110.48088,-6.97717],[110.48088,-6.97706],[110.48089,-6.97692],[110.48092,-6.97636],[110.48105,-6.97606],[110.48111,-6.97591],[110.48116,-6.97579],[110.48133,-6.97562],[110.48144,-6.97546],[110.48145,-6.97543],[110.4815,-6.97525],[110.48149,-6.97507],[110.48142,-6.97486],[110.48141,-6.97484],[110.48112,-6.97482],[110.48083,-6.97477],[110.48053,-6.97467],[110.47953,-6.97433],[110.47963,-6.97398],[110.47968,-6.97377],[110.47974,-6.97353],[110.47974,-6.97339],[110.47952,-6.97331],[110.47936,-6.97327],[110.47925,-6.97321],[110.47941,-6.97254],[110.47947,-6.97211],[110.47948,-6.97209],[110.47946,-6.97204],[110.47936,-6.97192],[110.47931,-6.97189],[110.47916,-6.97179],[110.47908,-6.9717],[110.4791,-6.97166],[110.47865,-6.97162],[110.47849,-6.9716],[110.47844,-6.9716],[110.47795,-6.97142],[110.47721,-6.97121],[110.47714,-6.97119],[110.47705,-6.97145],[110.47699,-6.97165],[110.47558,-6.97106],[110.47536,-6.97095],[110.47512,-6.97075],[110.4749,-6.97054],[110.47487,-6.97045],[110.47475,-6.97038],[110.47436,-6.97022],[110.47431,-6.9702],[110.47398,-6.97014],[110.47338,-6.97002],[110.47322,-6.96999],[110.47262,-6.96996],[110.47211,-6.96991],[110.47208,-6.9699],[110.47193,-6.96987],[110.47143,-6.96977],[110.46979,-6.96956],[110.46965,-6.96954],[110.46946,-6.96952],[110.46922,-6.9695],[110.46918,-6.96949]]]}},{"type":"Feature","properties":{"id":"KEL-BANGETAYU-WETAN","name":"Bangetayu Wetan","source_name":"Bangetayu Wetan","type":"Kelurahan","category":"Batas kelurahan","kecamatan":"Genuk","kabupaten":"Kota Semarang","rob":"Rendah","subsidence":"Sedang","alih":"Permukiman","guna":"Permukiman lebih dalam","catatan":"Lebih jauh dari garis pantai. Bukan zona rob harian.","status":"Batas dari berkas vektor; kelas tematik adalah interpretasi","location":"Genuk, Kota Semarang","observation":"Rendah","description":"Lebih jauh dari garis pantai. Bukan zona rob harian.","last_update":"2026"},"geometry":{"type":"MultiPolygon","coordinates":[[[[110.498,-6.99591],[110.49799,-6.99577],[110.49781,-6.9956],[110.49765,-6.99551],[110.4972,-6.9953],[110.49719,-6.99529],[110.49705,-6.99518],[110.4969,-6.99497],[110.49676,-6.99483],[110.49664,-6.99477],[110.49626,-6.99464],[110.49584,-6.99456],[110.49524,-6.99445],[110.49555,-6.99459],[110.49557,-6.9946],[110.49634,-6.99474],[110.49679,-6.99511],[110.49716,-6.99532],[110.49717,-6.99533],[110.4976,-6.99562],[110.4978,-6.99573],[110.49794,-6.99592],[110.498,-6.99591]]],[[[110.49516,-6.99441],[110.49516,-6.99441],[110.49517,-6.99441],[110.49516,-6.99441]]],[[[110.48723,-6.98182],[110.48701,-6.98173],[110.48651,-6.98154],[110.48639,-6.98151],[110.48593,-6.98139],[110.48579,-6.9813],[110.48563,-6.98116],[110.48548,-6.98098],[110.48536,-6.98076],[110.48536,-6.98066],[110.4854,-6.98056],[110.48553,-6.98043],[110.48565,-6.98027],[110.48565,-6.98018],[110.48564,-6.98009],[110.48562,-6.97981],[110.4856,-6.97959],[110.48561,-6.97947],[110.48563,-6.97925],[110.48565,-6.97906],[110.48566,-6.97891],[110.48574,-6.97875],[110.48579,-6.97866],[110.48584,-6.97853],[110.48585,-6.97848],[110.48586,-6.97844],[110.48465,-6.97817],[110.48463,-6.97816],[110.48445,-6.9781],[110.48423,-6.97797],[110.48395,-6.9778],[110.4836,-6.97772],[110.48336,-6.97767],[110.48251,-6.97751],[110.48184,-6.97738],[110.48089,-6.97728],[110.48088,-6.97735],[110.48087,-6.9774],[110.48084,-6.97749],[110.48077,-6.97773],[110.48055,-6.97811],[110.48045,-6.97827],[110.48043,-6.97828],[110.48036,-6.97841],[110.48034,-6.97868],[110.48034,-6.97873],[110.48035,-6.97875],[110.48042,-6.97884],[110.48052,-6.97901],[110.48056,-6.97914],[110.48048,-6.9794],[110.48035,-6.97963],[110.48031,-6.97971],[110.48018,-6.97993],[110.48011,-6.98024],[110.4801,-6.98034],[110.48009,-6.98037],[110.48007,-6.98054],[110.48006,-6.98058],[110.48006,-6.98065],[110.48001,-6.98105],[110.47998,-6.98136],[110.47998,-6.98143],[110.47995,-6.98153],[110.47992,-6.98159],[110.47987,-6.98172],[110.4798,-6.98179],[110.47971,-6.98182],[110.47947,-6.9818],[110.47945,-6.9818],[110.47922,-6.98175],[110.47913,-6.98177],[110.47902,-6.9819],[110.47885,-6.98208],[110.47861,-6.98227],[110.47846,-6.9824],[110.47837,-6.98256],[110.4783,-6.98271],[110.47825,-6.98275],[110.47815,-6.98302],[110.47812,-6.98308],[110.47791,-6.98379],[110.47776,-6.98429],[110.47769,-6.98449],[110.4776,-6.98478],[110.47748,-6.98511],[110.47743,-6.98522],[110.47779,-6.98556],[110.47773,-6.98582],[110.47788,-6.98598],[110.47792,-6.98601],[110.47825,-6.98636],[110.4783,-6.9864],[110.47873,-6.98686],[110.47916,-6.98731],[110.47989,-6.98795],[110.47999,-6.98804],[110.48051,-6.98849],[110.48074,-6.9887],[110.48155,-6.98941],[110.48173,-6.98957],[110.48217,-6.98996],[110.4825,-6.99024],[110.48262,-6.99034],[110.48292,-6.99065],[110.48311,-6.99081],[110.48348,-6.9911],[110.48349,-6.99111],[110.48356,-6.99116],[110.48374,-6.99137],[110.48387,-6.99149],[110.48523,-6.99268],[110.48563,-6.99306],[110.48581,-6.99325],[110.48581,-6.99327],[110.48589,-6.99335],[110.48634,-6.99377],[110.4869,-6.99422],[110.48699,-6.99429],[110.48708,-6.99437],[110.48716,-6.99445],[110.48749,-6.99475],[110.4876,-6.99485],[110.48882,-6.99595],[110.48986,-6.99684],[110.49018,-6.99713],[110.49038,-6.99731],[110.49053,-6.99743],[110.49076,-6.99769],[110.49096,-6.99786],[110.49099,-6.99786],[110.49102,-6.99789],[110.49117,-6.99802],[110.49153,-6.99834],[110.49207,-6.99883],[110.49486,-6.99463],[110.49514,-6.99439],[110.4951,-6.99436],[110.49508,-6.99426],[110.49512,-6.99405],[110.49519,-6.99376],[110.49511,-6.99346],[110.49503,-6.99334],[110.49496,-6.99321],[110.49494,-6.993],[110.49498,-6.99285],[110.49501,-6.9927],[110.49499,-6.9925],[110.49492,-6.99239],[110.4949,-6.99229],[110.49493,-6.99215],[110.49503,-6.9918],[110.49501,-6.99164],[110.49494,-6.99153],[110.49481,-6.99145],[110.4947,-6.99144],[110.49428,-6.99142],[110.49409,-6.99136],[110.49402,-6.99127],[110.49402,-6.99118],[110.49409,-6.99074],[110.49421,-6.99036],[110.49423,-6.99028],[110.49445,-6.98943],[110.49446,-6.9892],[110.49427,-6.98906],[110.49422,-6.98903],[110.4941,-6.989],[110.49409,-6.989],[110.49407,-6.989],[110.49335,-6.98882],[110.49262,-6.98853],[110.49231,-6.98841],[110.49228,-6.9884],[110.49227,-6.9884],[110.49225,-6.98839],[110.49206,-6.98831],[110.492,-6.98829],[110.49178,-6.98821],[110.4916,-6.98814],[110.4912,-6.98792],[110.49067,-6.9873],[110.49059,-6.98721],[110.49056,-6.98717],[110.4905,-6.98706],[110.49049,-6.98703],[110.49048,-6.987],[110.49025,-6.98638],[110.49015,-6.98613],[110.49007,-6.98591],[110.48988,-6.98567],[110.4897,-6.98543],[110.48951,-6.9851],[110.48936,-6.98483],[110.48932,-6.98473],[110.48928,-6.98461],[110.48926,-6.98432],[110.48931,-6.98395],[110.48933,-6.98378],[110.48931,-6.98366],[110.48929,-6.98363],[110.48914,-6.98345],[110.48909,-6.98342],[110.48857,-6.98305],[110.48841,-6.98297],[110.4881,-6.98282],[110.48788,-6.98271],[110.48776,-6.98264],[110.4877,-6.9825],[110.48754,-6.98208],[110.48741,-6.98193],[110.48723,-6.98182]]]]}},{"type":"Feature","properties":{"id":"KEL-PENGGARON-LOR","name":"Penggaron Lor","source_name":"Penggaron Lor","type":"Kelurahan","category":"Batas kelurahan","kecamatan":"Genuk","kabupaten":"Kota Semarang","rob":"Rendah","subsidence":"Rendah","alih":"Perkotaan","guna":"Kawasan dalam","catatan":"Bagian selatan Genuk. Dipakai sebagai pembanding yang lebih kering.","status":"Batas dari berkas vektor; kelas tematik adalah interpretasi","location":"Genuk, Kota Semarang","observation":"Rendah","description":"Bagian selatan Genuk. Dipakai sebagai pembanding yang lebih kering.","last_update":"2026"},"geometry":{"type":"Polygon","coordinates":[[[110.50316,-6.97502],[110.50284,-6.97509],[110.50234,-6.97511],[110.50187,-6.9752],[110.50085,-6.97529],[110.5,-6.97525],[110.49957,-6.97511],[110.49922,-6.975],[110.49904,-6.97496],[110.49886,-6.97489],[110.49881,-6.97487],[110.49878,-6.97486],[110.49838,-6.9748],[110.49824,-6.97478],[110.49793,-6.97475],[110.49765,-6.97472],[110.49763,-6.97472],[110.49762,-6.97472],[110.49744,-6.97468],[110.49745,-6.97577],[110.49743,-6.97626],[110.49732,-6.97675],[110.49728,-6.97705],[110.49727,-6.97711],[110.49722,-6.97798],[110.49719,-6.97856],[110.49723,-6.97898],[110.49712,-6.9797],[110.49686,-6.9808],[110.49672,-6.98129],[110.49656,-6.98172],[110.49632,-6.98235],[110.49611,-6.98291],[110.496,-6.98317],[110.496,-6.98317],[110.49587,-6.98344],[110.49578,-6.98365],[110.49563,-6.98394],[110.49525,-6.98474],[110.49518,-6.98487],[110.49519,-6.98522],[110.4952,-6.98534],[110.49522,-6.98576],[110.49519,-6.98608],[110.49511,-6.98645],[110.49492,-6.98698],[110.49486,-6.98718],[110.4949,-6.98752],[110.49494,-6.98774],[110.49493,-6.98788],[110.49479,-6.98812],[110.49463,-6.9884],[110.49451,-6.98878],[110.49446,-6.98895],[110.49446,-6.98918],[110.49446,-6.9892],[110.49445,-6.98943],[110.49423,-6.99028],[110.49421,-6.99036],[110.49409,-6.99074],[110.49402,-6.99118],[110.49402,-6.99127],[110.49409,-6.99136],[110.49428,-6.99142],[110.4947,-6.99144],[110.49481,-6.99145],[110.49494,-6.99153],[110.49501,-6.99164],[110.49503,-6.9918],[110.49493,-6.99215],[110.4949,-6.99229],[110.49492,-6.99239],[110.49499,-6.9925],[110.49501,-6.9927],[110.49498,-6.99285],[110.49494,-6.993],[110.49496,-6.99321],[110.49503,-6.99334],[110.49511,-6.99346],[110.49519,-6.99376],[110.49512,-6.99405],[110.49508,-6.99426],[110.4951,-6.99436],[110.49514,-6.99439],[110.49515,-6.99438],[110.49516,-6.99441],[110.49517,-6.99441],[110.49524,-6.99445],[110.49584,-6.99456],[110.49626,-6.99464],[110.49664,-6.99477],[110.49676,-6.99483],[110.4969,-6.99497],[110.49705,-6.99518],[110.49719,-6.99529],[110.4972,-6.9953],[110.49765,-6.99551],[110.49781,-6.9956],[110.49799,-6.99577],[110.498,-6.99591],[110.49814,-6.9959],[110.49855,-6.99599],[110.49908,-6.9962],[110.50005,-6.99644],[110.50013,-6.99647],[110.50023,-6.99623],[110.5008,-6.99491],[110.50091,-6.99467],[110.50118,-6.99401],[110.50124,-6.99385],[110.50134,-6.99361],[110.50138,-6.9935],[110.50147,-6.9933],[110.50159,-6.993],[110.5016,-6.99296],[110.50166,-6.99283],[110.50167,-6.99264],[110.50167,-6.99261],[110.50163,-6.99244],[110.50161,-6.9923],[110.50162,-6.99222],[110.50164,-6.99215],[110.50164,-6.99211],[110.50163,-6.99197],[110.50161,-6.99167],[110.50161,-6.99162],[110.50161,-6.99157],[110.50161,-6.99155],[110.50159,-6.9912],[110.50168,-6.99077],[110.50168,-6.99039],[110.50157,-6.98995],[110.50153,-6.98951],[110.50155,-6.98948],[110.50155,-6.98933],[110.50155,-6.98931],[110.50179,-6.98892],[110.50186,-6.98876],[110.5021,-6.98824],[110.50245,-6.98743],[110.50252,-6.98727],[110.50277,-6.98638],[110.5029,-6.9859],[110.50277,-6.98576],[110.50264,-6.98567],[110.50213,-6.98548],[110.50184,-6.98534],[110.50187,-6.9853],[110.5015,-6.98504],[110.50157,-6.98439],[110.50164,-6.9841],[110.50165,-6.98389],[110.50162,-6.98367],[110.5016,-6.98344],[110.50162,-6.98299],[110.50175,-6.98217],[110.50192,-6.98153],[110.50193,-6.9815],[110.50206,-6.97973],[110.50213,-6.97932],[110.50221,-6.9792],[110.50225,-6.97918],[110.5025,-6.9791],[110.5026,-6.97891],[110.50277,-6.9783],[110.50288,-6.97756],[110.50285,-6.97736],[110.50285,-6.97735],[110.50283,-6.97719],[110.50287,-6.97707],[110.50296,-6.97694],[110.50296,-6.97693],[110.503,-6.9768],[110.50297,-6.97646],[110.50291,-6.97603],[110.50296,-6.97585],[110.503,-6.97571],[110.50312,-6.97526],[110.50316,-6.97502]]]}},{"type":"Feature","properties":{"id":"KEL-SEMBUNGHARJO","name":"Sembungharjo","source_name":"Sembungharjo","type":"Kelurahan","category":"Batas kelurahan","kecamatan":"Genuk","kabupaten":"Kota Semarang","rob":"Rendah","subsidence":"Sedang","alih":"Permukiman","guna":"Permukiman dalam","catatan":"Genangan di sini lebih bersifat hujan plus air saluran daripada rob laut.","status":"Batas dari berkas vektor; kelas tematik adalah interpretasi","location":"Genuk, Kota Semarang","observation":"Rendah","description":"Genangan di sini lebih bersifat hujan plus air saluran daripada rob laut.","last_update":"2026"},"geometry":{"type":"Polygon","coordinates":[[[110.48956,-6.97226],[110.48935,-6.97216],[110.48907,-6.97207],[110.48894,-6.97203],[110.48872,-6.97196],[110.4886,-6.97191],[110.48843,-6.97183],[110.48842,-6.97189],[110.48836,-6.97187],[110.4876,-6.9716],[110.48759,-6.97159],[110.48745,-6.97153],[110.48723,-6.97138],[110.4871,-6.9713],[110.48696,-6.97123],[110.48685,-6.97118],[110.48638,-6.97103],[110.48595,-6.97088],[110.48578,-6.97079],[110.48468,-6.97021],[110.48448,-6.9701],[110.48415,-6.96987],[110.48382,-6.9697],[110.48233,-6.96935],[110.48193,-6.96927],[110.48185,-6.96924],[110.48182,-6.96937],[110.48181,-6.96942],[110.48174,-6.96965],[110.48162,-6.97006],[110.48155,-6.97031],[110.48142,-6.97073],[110.48136,-6.97093],[110.48135,-6.97098],[110.48128,-6.97137],[110.48124,-6.97158],[110.48124,-6.97172],[110.48127,-6.97179],[110.48144,-6.97187],[110.48155,-6.97192],[110.48162,-6.97201],[110.48163,-6.97225],[110.48161,-6.97241],[110.48159,-6.97255],[110.48157,-6.97274],[110.4816,-6.97285],[110.48162,-6.97294],[110.48166,-6.97311],[110.48161,-6.97353],[110.48161,-6.97382],[110.4816,-6.97395],[110.4816,-6.97409],[110.48144,-6.97453],[110.48141,-6.97474],[110.48141,-6.97484],[110.48142,-6.97486],[110.48149,-6.97507],[110.4815,-6.97525],[110.48145,-6.97543],[110.48144,-6.97546],[110.48133,-6.97562],[110.48116,-6.97579],[110.48111,-6.97591],[110.48105,-6.97606],[110.48092,-6.97636],[110.48089,-6.97692],[110.48088,-6.97706],[110.48088,-6.97717],[110.48088,-6.97718],[110.48089,-6.97721],[110.48089,-6.97728],[110.48184,-6.97738],[110.48251,-6.97751],[110.48336,-6.97767],[110.4836,-6.97772],[110.48395,-6.9778],[110.48423,-6.97797],[110.48445,-6.9781],[110.48463,-6.97816],[110.48465,-6.97817],[110.48586,-6.97844],[110.48585,-6.97848],[110.48584,-6.97853],[110.48579,-6.97866],[110.48574,-6.97875],[110.48566,-6.97891],[110.48565,-6.97906],[110.48563,-6.97925],[110.48561,-6.97947],[110.4856,-6.97959],[110.48562,-6.97981],[110.48564,-6.98009],[110.48565,-6.98018],[110.48565,-6.98027],[110.48553,-6.98043],[110.4854,-6.98056],[110.48536,-6.98066],[110.48536,-6.98076],[110.48548,-6.98098],[110.48563,-6.98116],[110.48579,-6.9813],[110.48593,-6.98139],[110.48639,-6.98151],[110.48651,-6.98154],[110.48701,-6.98173],[110.48723,-6.98182],[110.48741,-6.98193],[110.48754,-6.98208],[110.4877,-6.9825],[110.48776,-6.98264],[110.48788,-6.98271],[110.4881,-6.98282],[110.48841,-6.98297],[110.48857,-6.98305],[110.48909,-6.98342],[110.48914,-6.98345],[110.48929,-6.98363],[110.48931,-6.98366],[110.48933,-6.98378],[110.48931,-6.98395],[110.48926,-6.98432],[110.48928,-6.98461],[110.48932,-6.98473],[110.48936,-6.98483],[110.48951,-6.9851],[110.4897,-6.98543],[110.48988,-6.98567],[110.49007,-6.98591],[110.49015,-6.98613],[110.49025,-6.98638],[110.49048,-6.987],[110.49049,-6.98703],[110.4905,-6.98706],[110.49056,-6.98717],[110.49059,-6.98721],[110.49067,-6.9873],[110.4912,-6.98792],[110.4916,-6.98814],[110.49178,-6.98821],[110.492,-6.98829],[110.49206,-6.98831],[110.49225,-6.98839],[110.49227,-6.9884],[110.49228,-6.9884],[110.49231,-6.98841],[110.49262,-6.98853],[110.49335,-6.98882],[110.49407,-6.989],[110.49409,-6.989],[110.4941,-6.989],[110.49422,-6.98903],[110.49427,-6.98906],[110.49446,-6.9892],[110.49446,-6.98918],[110.49446,-6.98895],[110.49451,-6.98878],[110.49463,-6.9884],[110.49479,-6.98812],[110.49493,-6.98788],[110.49494,-6.98774],[110.4949,-6.98752],[110.49486,-6.98718],[110.49492,-6.98698],[110.49511,-6.98645],[110.49519,-6.98608],[110.49522,-6.98576],[110.4952,-6.98534],[110.49519,-6.98522],[110.49518,-6.98487],[110.49525,-6.98474],[110.49563,-6.98394],[110.49578,-6.98365],[110.49587,-6.98344],[110.496,-6.98317],[110.496,-6.98317],[110.49611,-6.98291],[110.49632,-6.98235],[110.49656,-6.98172],[110.49672,-6.98129],[110.49686,-6.9808],[110.49712,-6.9797],[110.49723,-6.97898],[110.49719,-6.97856],[110.49722,-6.97798],[110.49727,-6.97711],[110.49728,-6.97705],[110.49732,-6.97675],[110.49743,-6.97626],[110.49745,-6.97577],[110.49744,-6.97468],[110.49723,-6.97464],[110.49716,-6.97462],[110.49657,-6.97447],[110.49643,-6.97444],[110.49586,-6.97429],[110.49509,-6.97412],[110.49451,-6.97396],[110.49391,-6.97381],[110.49381,-6.97379],[110.49351,-6.97372],[110.49257,-6.9735],[110.49224,-6.9734],[110.49214,-6.97338],[110.49104,-6.97305],[110.4908,-6.97293],[110.49053,-6.97275],[110.48996,-6.97246],[110.48977,-6.97237],[110.48956,-6.97226]]]}}]}